{"type": "FeatureCollection", "frame": "map", "crs_name": "EPSG:4326", "layer": "buildings_near", "features": [{"type": "Feature", "geometry": {"type": "Polygon", "coordinates": [[[128.38495648768094, 36.09703530634516], [128.38495687408476, 36.096985722321236], [128.38523458294097, 36.096987147434966], [128.38523419671162, 36.097036731461465], [128.38495648768094, 36.09703530634516]]]}, "properties": {"score": 0.678, "arch_area_m2": 138.0, "source": "model", "merged_from": 1, "level": null, "label": null, "reason": null, "basis": null, "in_parcel_frac": 0.0, "rival_frac": 1.0, "owner": "4719011300102930011", "owner_by": "footprint", "registered": true, "bld_id": "N0001", "role": "neighbor", "az_deg": 32.1, "dist_m": 77.59, "dong": null}, "id": "N0001"}, {"type": "Feature", "geometry": {"type": "Polygon", "coordinates": [[[128.3836901347484, 36.09702879965664], [128.38369045154792, 36.09698823091945], [128.3838348601209, 36.096988973585134], [128.38383454339566, 36.09702954232342], [128.3836901347484, 36.09702879965664]]]}, "properties": {"score": 0.576, "arch_area_m2": 59.0, "source": "model", "merged_from": 1, "level": null, "label": null, "reason": null, "basis": null, "in_parcel_frac": 0.0, "rival_frac": 1.0, "owner": "4719011300102930019", "owner_by": "footprint", "registered": true, "bld_id": "N0002", "role": "neighbor", "az_deg": 325.7, "dist_m": 78.0, "dong": null}, "id": "N0002"}, {"type": "Feature", "geometry": {"type": "Polygon", "coordinates": [[[128.3844899365533, 36.097032910701], [128.3844903935586, 36.09697431140509], [128.3847181147664, 36.096975480932], [128.3847176579302, 36.09703408023042], [128.3844899365533, 36.097032910701]]]}, "properties": {"score": 0.543, "arch_area_m2": 133.0, "source": "model", "merged_from": 1, "level": null, "label": null, "reason": null, "basis": null, "in_parcel_frac": 0.0, "rival_frac": 1.0, "owner": "4719011300102930010", "owner_by": "footprint", "registered": true, "bld_id": "N0003", "role": "neighbor", "az_deg": 8.3, "dist_m": 76.0, "dong": null}, "id": "N0003"}, {"type": "Feature", "geometry": {"type": "Polygon", "coordinates": [[[128.38475098301078, 36.097034251344766], [128.38475147496158, 36.0969711444076], [128.38492920858764, 36.09697205685887], [128.38492871677894, 36.09703516379812], [128.38475098301078, 36.097034251344766]]]}, "properties": {"score": 0.448, "arch_area_m2": 112.0, "source": "model", "merged_from": 1, "level": null, "label": null, "reason": null, "basis": null, "in_parcel_frac": 0.0, "rival_frac": 1.0, "owner": "4719011300102930011", "owner_by": "footprint", "registered": true, "bld_id": "N0004", "role": "neighbor", "az_deg": 20.7, "dist_m": 75.5, "dong": null}, "id": "N0004"}, {"type": "Feature", "geometry": {"type": "Polygon", "coordinates": [[[128.38431775698442, 36.09703202613537], [128.3843182141175, 36.09697342684135], [128.38447373103176, 36.09697422581296], [128.38447327401406, 36.09703282510869], [128.38431775698442, 36.09703202613537]]]}, "properties": {"score": 0.629, "arch_area_m2": 91.0, "source": "model", "merged_from": 1, "level": null, "label": null, "reason": null, "basis": null, "in_parcel_frac": 0.0, "rival_frac": 1.0, "owner": "4719011300102930010", "owner_by": "footprint", "registered": true, "bld_id": "N0005", "role": "neighbor", "az_deg": 356.5, "dist_m": 76.0, "dong": null}, "id": "N0005"}, {"type": "Feature", "geometry": {"type": "Polygon", "coordinates": [[[128.38396784369007, 36.097030227707535], [128.38396847700298, 36.09694909022865], [128.38417953559477, 36.09695017511372], [128.3841789024988, 36.09703131259582], [128.38396784369007, 36.097030227707535]]]}, "properties": {"score": 0.497, "arch_area_m2": 171.0, "source": "model", "merged_from": 1, "level": null, "label": null, "reason": null, "basis": null, "in_parcel_frac": 0.0, "rival_frac": 0.861, "owner": "4719011300102930020", "owner_by": "footprint", "registered": true, "bld_id": "N0006", "role": "neighbor", "az_deg": 339.0, "dist_m": 73.5, "dong": null}, "id": "N0006"}, {"type": "Feature", "geometry": {"type": "Polygon", "coordinates": [[[128.3860950948306, 36.09704114523222], [128.3860967077039, 36.0968337938126], [128.38614114104357, 36.09683402145055], [128.386139528287, 36.097041372871914], [128.3860950948306, 36.09704114523222]]]}, "properties": {"score": 0.539, "arch_area_m2": 92.0, "source": "model", "merged_from": 1, "level": null, "label": null, "reason": null, "basis": null, "in_parcel_frac": 0.0, "rival_frac": 1.0, "owner": "4719011300102950000", "owner_by": "footprint", "registered": true, "bld_id": "N0007", "role": "neighbor", "az_deg": 60.3, "dist_m": 122.03, "dong": null}, "id": "N0007"}, {"type": "Feature", "geometry": {"type": "Polygon", "coordinates": [[[128.38563965193143, 36.09703881097556], [128.38564142389833, 36.096811175196905], [128.38606354048827, 36.09681333869503], [128.38606176973866, 36.09704097449164], [128.38563965193143, 36.09703881097556]]]}, "properties": {"score": 0.915, "arch_area_m2": 960.0, "source": "model", "merged_from": 1, "level": null, "label": null, "reason": null, "basis": null, "in_parcel_frac": 0.0, "rival_frac": 0.997, "owner": "4719011300102950000", "owner_by": "footprint", "registered": true, "bld_id": "N0008", "role": "neighbor", "az_deg": 56.2, "dist_m": 87.14, "dong": null}, "id": "N0008"}, {"type": "Feature", "geometry": {"type": "Polygon", "coordinates": [[[128.3849126514501, 36.09695844841214], [128.38491374047842, 36.09681871161574], [128.38524143623482, 36.09682039329289], [128.3852403477866, 36.096960130097834], [128.3849126514501, 36.09695844841214]]]}, "properties": {"score": 0.74, "arch_area_m2": 457.0, "source": "model", "merged_from": 1, "level": null, "label": null, "reason": null, "basis": null, "in_parcel_frac": 0.0, "rival_frac": 1.0, "owner": "4719011300102930012", "owner_by": "footprint", "registered": true, "bld_id": "N0009", "role": "neighbor", "az_deg": 34.6, "dist_m": 59.0, "dong": null}, "id": "N0009"}, {"type": "Feature", "geometry": {"type": "Polygon", "coordinates": [[[128.38432949828527, 36.09695094572723], [128.38433066746273, 36.096801066760115], [128.3848861013956, 36.09680166541468], [128.38488491570703, 36.09695379821671], [128.38432949828527, 36.09695094572723]]]}, "properties": {"score": 0.909, "arch_area_m2": 838.0, "source": "model", "merged_from": 1, "level": null, "label": null, "reason": null, "basis": null, "in_parcel_frac": 0.0, "rival_frac": 0.981, "owner": "4719011300102930013", "owner_by": "footprint", "registered": true, "bld_id": "N0010", "role": "neighbor", "az_deg": 9.7, "dist_m": 56.69, "dong": null}, "id": "N0010"}, {"type": "Feature", "geometry": {"type": "Polygon", "coordinates": [[[128.38390797928275, 36.096872146272275], [128.38390868302787, 36.09678199351652], [128.3840197662594, 36.09678256460816], [128.38401906264113, 36.096872717365805], [128.38390797928275, 36.096872146272275]]]}, "properties": {"score": 0.572, "arch_area_m2": 100.0, "source": "model", "merged_from": 1, "level": null, "label": null, "reason": null, "basis": null, "in_parcel_frac": 0.0, "rival_frac": 1.0, "owner": "4719011300102930006", "owner_by": "footprint", "registered": true, "bld_id": "N0011", "role": "neighbor", "az_deg": 329.4, "dist_m": 55.0, "dong": null}, "id": "N0011"}, {"type": "Feature", "geometry": {"type": "Polygon", "coordinates": [[[128.38490271997432, 36.09680738549743], [128.38490345771186, 36.09671272508511], [128.38503398041908, 36.09671339502255], [128.3850332428381, 36.09680805543719], [128.38490271997432, 36.09680738549743]]]}, "properties": {"score": 0.366, "arch_area_m2": 123.0, "source": "model", "merged_from": 1, "level": null, "label": null, "reason": null, "basis": null, "in_parcel_frac": 0.0, "rival_frac": 1.0, "owner": "4719011300102930012", "owner_by": "footprint", "registered": true, "bld_id": "N0012", "role": "neighbor", "az_deg": 33.6, "dist_m": 47.25, "dong": null}, "id": "N0012"}, {"type": "Feature", "geometry": {"type": "Polygon", "coordinates": [[[128.38333800794157, 36.09695486290949], [128.38334112488036, 36.096555937003195], [128.38366048823062, 36.09655758011792], [128.38365737290582, 36.0969565060481], [128.38333800794157, 36.09695486290949]]]}, "properties": {"score": 0.899, "arch_area_m2": 1272.0, "source": "model", "merged_from": 1, "level": null, "label": null, "reason": null, "basis": null, "in_parcel_frac": 0.0, "rival_frac": 1.0, "owner": "4719011300102930000", "owner_by": "footprint", "registered": true, "bld_id": "N0013", "role": "neighbor", "az_deg": 308.6, "dist_m": 32.19, "dong": null}, "id": "N0013"}, {"type": "Feature", "geometry": {"type": "Polygon", "coordinates": [[[128.38563047346756, 36.09679083386594], [128.3856320524582, 36.09658799009513], [128.38602084295246, 36.09658998286468], [128.3860192649609, 36.096792826650216], [128.38563047346756, 36.09679083386594]]]}, "properties": {"score": 0.875, "arch_area_m2": 788.0, "source": "model", "merged_from": 1, "level": null, "label": null, "reason": null, "basis": null, "in_parcel_frac": 0.0, "rival_frac": 0.967, "owner": "4719011300102950009", "owner_by": "footprint", "registered": true, "bld_id": "N0014", "role": "neighbor", "az_deg": 63.0, "dist_m": 72.23, "dong": null}, "id": "N0014"}, {"type": "Feature", "geometry": {"type": "Polygon", "coordinates": [[[128.3843196734183, 36.09678635986036], [128.3843211327056, 36.09659929287344], [128.38460994846795, 36.096600776496985], [128.38458759127738, 36.09661869295093], [128.38462063501123, 36.09665492520806], [128.38448178118117, 36.096654212025825], [128.3844807441264, 36.09678718735728], [128.3843196734183, 36.09678635986036]]]}, "properties": {"score": 0.756, "arch_area_m2": 366.0, "source": "model", "merged_from": 1, "level": null, "label": null, "reason": null, "basis": null, "in_parcel_frac": 0.0, "rival_frac": 1.0, "owner": "4719011300102930013", "owner_by": "footprint", "registered": true, "bld_id": "N0015", "role": "neighbor", "az_deg": 357.4, "dist_m": 34.5, "dong": null}, "id": "N0015"}, {"type": "Feature", "geometry": {"type": "Polygon", "coordinates": [[[128.38391487055162, 36.09670088459211], [128.3839155742845, 36.09661073183365], [128.38424326911584, 36.09661241623213], [128.38424256575726, 36.096702568996115], [128.38391487055162, 36.09670088459211]]]}, "properties": {"score": 0.605, "arch_area_m2": 295.0, "source": "model", "merged_from": 1, "level": null, "label": null, "reason": null, "basis": null, "in_parcel_frac": 0.0, "rival_frac": 1.0, "owner": "4719011300102930006", "owner_by": "footprint", "registered": true, "bld_id": "N0016", "role": "neighbor", "az_deg": 330.4, "dist_m": 36.0, "dong": null}, "id": "N0016"}, {"type": "Feature", "geometry": {"type": "Polygon", "coordinates": [[[128.38295927393975, 36.09673203010888], [128.38296075406896, 36.09654270934962], [128.38321624468597, 36.096544024720075], [128.38321476516953, 36.09673334548842], [128.38295927393975, 36.09673203010888]]]}, "properties": {"score": 0.617, "arch_area_m2": 483.0, "source": "model", "merged_from": 1, "level": null, "label": null, "reason": null, "basis": null, "in_parcel_frac": 0.0, "rival_frac": 1.0, "owner": "4719011300102930000", "owner_by": "parcel", "registered": false, "bld_id": "N0017", "role": "neighbor", "az_deg": 295.3, "dist_m": 58.67, "dong": null}, "id": "N0017"}, {"type": "Feature", "geometry": {"type": "Polygon", "coordinates": [[[128.38276505471202, 36.09670849072727], [128.38276657055786, 36.09651466233713], [128.3829443030896, 36.0965155777225], [128.38294278768015, 36.09670940611912], [128.38276505471202, 36.09670849072727]]]}, "properties": {"score": 0.783, "arch_area_m2": 344.0, "source": "model", "merged_from": 1, "level": null, "label": null, "reason": null, "basis": null, "in_parcel_frac": 0.0, "rival_frac": 1.0, "owner": "4719011300102930000", "owner_by": "footprint", "registered": true, "bld_id": "N0018", "role": "neighbor", "az_deg": 291.2, "dist_m": 79.85, "dong": null}, "id": "N0018"}, {"type": "Feature", "geometry": {"type": "Polygon", "coordinates": [[[128.38430389094978, 36.09631746558913], [128.38480098554643, 36.096320018755954], [128.38480012472132, 36.09643045590863], [128.38507783161566, 36.09643188136682], [128.38507665509275, 36.09658288727399], [128.38430185142406, 36.096578908616806], [128.38430389094978, 36.09631746558913]]]}, "properties": {"score": 0.921, "arch_area_m2": 1717.0, "source": "model", "merged_from": 1, "level": null, "label": null, "reason": null, "basis": null, "in_parcel_frac": 0.0, "rival_frac": 0.995, "owner": "4719011300102930014", "owner_by": "footprint", "registered": true, "bld_id": "N0019", "role": "neighbor", "az_deg": 21.8, "dist_m": 3.25, "dong": null}, "id": "N0019"}, {"type": "Feature", "geometry": {"type": "Polygon", "coordinates": [[[128.38366554392294, 36.096487442678594], [128.38366887987664, 36.09631856717538], [128.38427690872743, 36.09632647683381], [128.38427387075006, 36.09648032795427], [128.38407834426317, 36.096477784743996], [128.38407629934093, 36.096581331502094], [128.38374318302576, 36.096576997923584], [128.38374493160808, 36.09648847558513], [128.38366554392294, 36.096487442678594]]]}, "properties": {"score": 0.866, "arch_area_m2": 1291.0, "source": "model", "merged_from": 1, "level": null, "label": null, "reason": null, "basis": null, "in_parcel_frac": 0.0, "rival_frac": 1.0, "owner": "4719011300102930021", "owner_by": "parcel", "registered": false, "bld_id": "N0020", "role": "neighbor", "az_deg": 311.3, "dist_m": 3.84, "dong": null}, "id": "N0020"}, {"type": "Feature", "geometry": {"type": "Polygon", "coordinates": [[[128.38277785289472, 36.0964924630984], [128.38277870112898, 36.09638399808016], [128.38280664803858, 36.096361602937264], [128.38277450565928, 36.09634340610048], [128.38277827337254, 36.09595040004609], [128.383640240241, 36.095949765610385], [128.38363595440808, 36.0964985705385], [128.38277785289472, 36.0964924630984]]]}, "properties": {"score": 0.957, "arch_area_m2": 4685.0, "source": "model", "merged_from": 1, "level": null, "label": null, "reason": null, "basis": null, "in_parcel_frac": 0.0, "rival_frac": 1.0, "owner": "4719011300102930004", "owner_by": "footprint", "registered": true, "bld_id": "N0021", "role": "neighbor", "az_deg": 280.5, "dist_m": 13.25, "dong": null}, "id": "N0021"}, {"type": "Feature", "geometry": {"type": "Polygon", "coordinates": [[[128.3827715762716, 36.09587457784091], [128.38277305680458, 36.095685257061184], [128.38315628855946, 36.095687230472656], [128.38315480894562, 36.095876551266], [128.3827715762716, 36.09587457784091]]]}, "properties": {"score": 0.897, "arch_area_m2": 725.0, "source": "model", "merged_from": 1, "level": null, "label": null, "reason": null, "basis": null, "in_parcel_frac": 0.0, "rival_frac": 1.0, "owner": "4719011300102930005", "owner_by": "footprint", "registered": true, "bld_id": "N0022", "role": "neighbor", "az_deg": 262.0, "dist_m": 57.0, "dong": null}, "id": "N0022"}, {"type": "Feature", "geometry": {"type": "Polygon", "coordinates": [[[128.3831603630426, 36.095876579857354], [128.38316193071418, 36.09567598996877], [128.38365624412225, 36.09567853354978], [128.38365467770683, 36.09587912345696], [128.3831603630426, 36.095876579857354]]]}, "properties": {"score": 0.894, "arch_area_m2": 990.0, "source": "model", "merged_from": 1, "level": null, "label": null, "reason": null, "basis": null, "in_parcel_frac": 0.0, "rival_frac": 1.0, "owner": "4719011300102930005", "owner_by": "parcel", "registered": false, "bld_id": "N0023", "role": "neighbor", "az_deg": 258.5, "dist_m": 12.0, "dong": null}, "id": "N0023"}, {"type": "Feature", "geometry": {"type": "Polygon", "coordinates": [[[128.38571088721326, 36.09573641635154], [128.3857122554408, 36.09556061838359], [128.38615102758243, 36.09556286692627], [128.38614966033205, 36.09573866490864], [128.38571088721326, 36.09573641635154]]]}, "properties": {"score": 0.928, "arch_area_m2": 770.0, "source": "model", "merged_from": 1, "level": null, "label": null, "reason": null, "basis": null, "in_parcel_frac": 0.0, "rival_frac": 1.0, "owner": "4719011300102950010", "owner_by": "footprint", "registered": true, "bld_id": "N0024", "role": "neighbor", "az_deg": 103.1, "dist_m": 79.39, "dong": null}, "id": "N0024"}, {"type": "Feature", "geometry": {"type": "Polygon", "coordinates": [[[128.3844663492807, 36.095669864535196], [128.38446930316692, 36.09551439326366], [128.38488865265404, 36.095519640527975], [128.38488569959338, 36.095675111817734], [128.3844663492807, 36.095669864535196]]]}, "properties": {"score": 0.764, "arch_area_m2": 651.0, "source": "model", "merged_from": 1, "level": null, "label": null, "reason": null, "basis": null, "in_parcel_frac": 0.0, "rival_frac": 1.0, "owner": "4719011300102930017", "owner_by": "footprint", "registered": true, "bld_id": "N0025", "role": "neighbor", "az_deg": 151.0, "dist_m": 6.58, "dong": null}, "id": "N0025"}, {"type": "Feature", "geometry": {"type": "Polygon", "coordinates": [[[128.3838729413575, 36.09566837841365], [128.3838847532652, 36.09557828275573], [128.38391821846625, 36.09556042354082], [128.38430144969766, 36.09556239328411], [128.38433087266435, 36.0953506769301], [128.38439231891522, 36.09530591442404], [128.38443119732236, 36.0953061141539], [128.38439506036116, 36.09566655409466], [128.38427287052573, 36.09566592628756], [128.3842345546161, 36.09559360428115], [128.38413461638228, 36.09558858285811], [128.3841173561952, 36.09566512708014], [128.3838729413575, 36.09566837841365]]]}, "properties": {"score": 0.721, "arch_area_m2": 688.0, "source": "model", "merged_from": 1, "level": null, "label": null, "reason": null, "basis": null, "in_parcel_frac": 0.0, "rival_frac": 1.0, "owner": "4719011300102930016", "owner_by": "footprint", "registered": true, "bld_id": "N0026", "role": "neighbor", "az_deg": 209.0, "dist_m": 6.5, "dong": null}, "id": "N0026"}, {"type": "Feature", "geometry": {"type": "Polygon", "coordinates": [[[128.38365573183228, 36.0956930988819], [128.38367099480027, 36.09530258734519], [128.38384862961772, 36.095307160286644], [128.3838202435236, 36.095650131828236], [128.38377270979544, 36.09569611033888], [128.38365573183228, 36.0956930988819]]]}, "properties": {"score": 0.766, "arch_area_m2": 650.0, "source": "model", "merged_from": 1, "level": null, "label": null, "reason": null, "basis": null, "in_parcel_frac": 0.032, "rival_frac": 0.96, "owner": "4719011300102930016", "owner_by": "footprint", "registered": true, "bld_id": "N0027", "role": "neighbor", "az_deg": 234.9, "dist_m": 3.69, "dong": null}, "id": "N0027"}, {"type": "Feature", "geometry": {"type": "Polygon", "coordinates": [[[128.3856553185496, 36.095540905106624], [128.3856601739495, 36.0953199463435], [128.38597927503878, 36.09532456459717], [128.38597442053154, 36.095545523381716], [128.3856553185496, 36.095540905106624]]]}, "properties": {"score": 0.901, "arch_area_m2": 704.0, "source": "model", "merged_from": 1, "level": null, "label": null, "reason": null, "basis": null, "in_parcel_frac": 0.0, "rival_frac": 1.0, "owner": "4719011300102950024", "owner_by": "footprint", "registered": true, "bld_id": "N0028", "role": "neighbor", "az_deg": 112.3, "dist_m": 87.35, "dong": null}, "id": "N0028"}, {"type": "Feature", "geometry": {"type": "Polygon", "coordinates": [[[128.38615120287008, 36.095540328723025], [128.38610423864168, 36.09550853338414], [128.3861056761014, 36.09532372011494], [128.38615288562167, 36.095323961967516], [128.38615120287008, 36.095540328723025]]]}, "properties": {"score": 0.544, "arch_area_m2": 95.0, "source": "model", "merged_from": 1, "level": null, "label": null, "reason": null, "basis": null, "in_parcel_frac": 0.0, "rival_frac": 0.0, "owner": "4719011300102950062", "owner_by": "footprint", "registered": true, "bld_id": "N0029", "role": "neighbor", "az_deg": 108.7, "dist_m": 122.55, "dong": null}, "id": "N0029"}, {"type": "Feature", "geometry": {"type": "Polygon", "coordinates": [[[128.3844554862477, 36.095496307191254], [128.3844608044345, 36.095338224534395], [128.3848995518837, 36.0953498301975], [128.3848942979028, 36.09550603014027], [128.3844554862477, 36.095496307191254]]]}, "properties": {"score": 0.851, "arch_area_m2": 689.0, "source": "model", "merged_from": 1, "level": null, "label": null, "reason": null, "basis": null, "in_parcel_frac": 0.0, "rival_frac": 1.0, "owner": "4719011300102930018", "owner_by": "footprint", "registered": true, "bld_id": "N0030", "role": "neighbor", "az_deg": 158.9, "dist_m": 25.67, "dong": null}, "id": "N0030"}, {"type": "Feature", "geometry": {"type": "Polygon", "coordinates": [[[128.38316360405435, 36.09546187715885], [128.38316511885233, 36.09526804871373], [128.3836483215962, 36.09527053512105], [128.38364680798466, 36.09546436358374], [128.38316360405435, 36.09546187715885]]]}, "properties": {"score": 0.789, "arch_area_m2": 935.0, "source": "model", "merged_from": 1, "level": null, "label": null, "reason": null, "basis": null, "in_parcel_frac": 0.0, "rival_frac": 1.0, "owner": "4719011300102930005", "owner_by": "parcel", "registered": false, "bld_id": "N0031", "role": "neighbor", "az_deg": 239.2, "dist_m": 31.78, "dong": null}, "id": "N0031"}, {"type": "Feature", "geometry": {"type": "Polygon", "coordinates": [[[128.38277492507646, 36.09544635225909], [128.38277629982852, 36.095270554379674], [128.38314842146116, 36.09527247057911], [128.38314704753782, 36.09544826847078], [128.38277492507646, 36.09544635225909]]]}, "properties": {"score": 0.653, "arch_area_m2": 653.0, "source": "model", "merged_from": 1, "level": null, "label": null, "reason": null, "basis": null, "in_parcel_frac": 0.0, "rival_frac": 1.0, "owner": "4719011300102930005", "owner_by": "parcel", "registered": false, "bld_id": "N0032", "role": "neighbor", "az_deg": 247.1, "dist_m": 65.53, "dong": null}, "id": "N0032"}, {"type": "Feature", "geometry": {"type": "Polygon", "coordinates": [[[128.38400944071753, 36.095258868592964], [128.3834290420729, 36.09525588356076], [128.38343034493388, 36.0950891009315], [128.3840107423523, 36.09509208594555], [128.38400944071753, 36.095258868592964]]]}, "properties": {"score": 0.919, "arch_area_m2": 967.0, "source": "model", "merged_from": 1, "level": null, "label": null, "reason": null, "basis": null, "in_parcel_frac": 0.0, "rival_frac": 1.0, "owner": "4719011300102930002", "owner_by": "parcel", "registered": false, "bld_id": "N0033", "role": "neighbor", "az_deg": 222.0, "dist_m": 52.0, "dong": null}, "id": "N0033"}, {"type": "Feature", "geometry": {"type": "Polygon", "coordinates": [[[128.38566425106023, 36.09530568044016], [128.38566672453473, 36.09498789178187], [128.3859208217396, 36.09498919421883], [128.38592112631792, 36.0953069971237], [128.38566425106023, 36.09530568044016]]]}, "properties": {"score": 0.917, "arch_area_m2": 811.0, "source": "model", "merged_from": 1, "level": null, "label": null, "reason": null, "basis": null, "in_parcel_frac": 0.0, "rival_frac": 1.0, "owner": "4719011300102950024", "owner_by": "footprint", "registered": true, "bld_id": "N0034", "role": "neighbor", "az_deg": 122.3, "dist_m": 106.79, "dong": null}, "id": "N0034"}, {"type": "Feature", "geometry": {"type": "Polygon", "coordinates": [[[128.38277880924448, 36.095231636221115], [128.38277675475527, 36.09494080480023], [128.38310438632524, 36.09493927984359], [128.38310644202187, 36.09523011127068], [128.38277880924448, 36.095231636221115]]]}, "properties": {"score": 0.835, "arch_area_m2": 952.0, "source": "model", "merged_from": 1, "level": null, "label": null, "reason": null, "basis": null, "in_parcel_frac": 0.0, "rival_frac": 1.0, "owner": "4719011300102930027", "owner_by": "footprint", "registered": true, "bld_id": "N0035", "role": "neighbor", "az_deg": 239.1, "dist_m": 82.52, "dong": null}, "id": "N0035"}]}