{"type": "FeatureCollection", "frame": "map", "crs_name": "EPSG:4326", "layer": "buildings", "features": [{"type": "Feature", "geometry": {"type": "Polygon", "coordinates": [[[128.3847734784258, 36.09628606888345], [128.38477527041033, 36.09605617929359], [128.38492245436328, 36.0960569348904], [128.3849206628074, 36.09628682448658], [128.3847734784258, 36.09628606888345]]]}, "properties": {"score": 0.557, "arch_area_m2": 368.0, "source": "model", "merged_from": 1, "level": null, "label": null, "reason": null, "basis": null, "in_parcel_frac": 1.0, "rival_frac": 0.0, "owner": "4719011300102930015", "owner_by": "footprint", "registered": true, "bld_id": "B0001", "role": "subject", "dong": "B동", "area_fix_from": 338.0}, "id": "B0001"}, {"type": "Feature", "geometry": {"type": "Polygon", "coordinates": [[[128.38378480866027, 36.09628549646454], [128.38378917260823, 36.09572654931483], [128.38458340714382, 36.09573063104594], [128.38458085894473, 36.096057434877984], [128.3847558134518, 36.09605833330381], [128.38475400384132, 36.096290476712205], [128.38378480866027, 36.09628549646454]]]}, "properties": {"score": 0.957, "arch_area_m2": 4839.0, "source": "model", "merged_from": 1, "level": null, "label": null, "reason": null, "basis": null, "in_parcel_frac": 1.0, "rival_frac": 0.0, "owner": "4719011300102930015", "owner_by": "footprint", "registered": true, "bld_id": "B0002", "role": "subject", "dong": "A동"}, "id": "B0002"}]}