{"type": "FeatureCollection", "frame": "map", "crs_name": "EPSG:4326", "layer": "ledger", "features": [{"type": "Feature", "geometry": {"type": "MultiPolygon", "coordinates": [[[[128.38429680780044, 36.09630576813693], [128.3843348876066, 36.09630531538846], [128.38525049835883, 36.09630484532135], [128.38525156755273, 36.09617358237263], [128.38525237538875, 36.096074373677666], [128.3852525281967, 36.09605480045029], [128.3852555924825, 36.0956793592274], [128.3844313208425, 36.09567974998293], [128.38433977653665, 36.09568001756163], [128.3836621049397, 36.09567710251308], [128.38366182392375, 36.09588750367153], [128.3836612778852, 36.09630342155824], [128.38429680780044, 36.09630576813693]]]]}, "properties": {"level": "이상없음", "level_rank": 5, "label": "증축으로 보지 않음", "reason": "대장 합계 5,333 ㎡(2동) · 실측 합계 5,207 ㎡(2동) · 초과 -126 ㎡(-2 %) — 초과분이 30 ㎡ 미만이거나 10 % 이하다", "basis": "건축법 제14조 제1항 제1호", "scope": "parcel", "pnu": "4719011300102930015", "measured_sum_m2": 5207.0, "ledger_sum_m2": 5333.0, "n_model": 2, "n_ledger": 2, "authoritative": true, "detection_ratio": 0.976, "method": "필지 총량 비교 — 대장에 위치가 없어 동별 대응은 footprint 가 있어야 가능하다. 총량은 footprint 없이도 성립한다"}, "id": "A3:PARCEL:4719011300102930015"}, {"type": "Feature", "geometry": {"type": "Polygon", "coordinates": [[[128.38378480866027, 36.09628549646454], [128.38378917260823, 36.09572654931483], [128.38458340714382, 36.09573063104594], [128.38458085894473, 36.096057434877984], [128.3847558134518, 36.09605833330381], [128.38475400384132, 36.096290476712205], [128.38378480866027, 36.09628549646454]]]}, "properties": {"level": "이상없음", "level_rank": 5, "label": "대장과 일치", "reason": "대장 4935 ㎡ · 실측 4839 ㎡ · 초과 -96 ㎡(-2 %) — 모델 면적오차(2 %)와 구분되지 않는다", "basis": "건축법 제14조 제1항 제1호", "scope": "building", "bld_id": "B0002", "measured_m2": 4839.0, "ledger_m2": 4935.0, "ledger_dong": null, "ledger_struct": "일반철골구조", "ledger_roof": "기타지붕", "floors_above": 1.0, "registered": true, "cover": 0.993, "attached": null, "authoritative": false, "method": "등록 footprint 로 등록 여부 판정 후 면적 순위로 대장 동에 대응"}, "id": "A3:B0002"}, {"type": "Feature", "geometry": {"type": "Polygon", "coordinates": [[[128.3847734784258, 36.09628606888345], [128.38477527041033, 36.09605617929359], [128.38492245436328, 36.0960569348904], [128.3849206628074, 36.09628682448658], [128.3847734784258, 36.09628606888345]]]}, "properties": {"level": "이상없음", "level_rank": 5, "label": "대장과 일치", "reason": "대장 398 ㎡ · 실측 368 ㎡ · 초과 -30 ㎡(-8 %) — 모델 면적오차(2 %)와 구분되지 않는다", "basis": "건축법 제14조 제1항 제1호", "scope": "building", "bld_id": "B0001", "measured_m2": 368.0, "ledger_m2": 398.0, "ledger_dong": null, "ledger_struct": "철근콘크리트구조", "ledger_roof": "(철근)콘크리트", "floors_above": 3.0, "registered": true, "cover": 0.974, "attached": null, "authoritative": false, "method": "등록 footprint 로 등록 여부 판정 후 면적 순위로 대장 동에 대응"}, "id": "A3:B0001"}]}