{"type": "FeatureCollection", "frame": "map", "crs_name": "EPSG:4326", "layer": "parcel", "features": [{"type": "Feature", "geometry": {"type": "MultiPolygon", "coordinates": [[[[128.38429680780044, 36.09630576813693], [128.3843348876066, 36.09630531538846], [128.38525049835883, 36.09630484532135], [128.38525156755273, 36.09617358237263], [128.38525237538875, 36.096074373677666], [128.3852525281967, 36.09605480045029], [128.3852555924825, 36.0956793592274], [128.3844313208425, 36.09567974998293], [128.38433977653665, 36.09568001756163], [128.3836621049397, 36.09567710251308], [128.38366182392375, 36.09588750367153], [128.3836612778852, 36.09630342155824], [128.38429680780044, 36.09630576813693]]]]}, "properties": {"role": "subject", "pnu": "4719011300102930015", "address": "경상북도 구미시 공단동 293-15", "area_m2": 9944.0, "shifted_m": null}, "id": "4719011300102930015"}, {"type": "Feature", "geometry": {"type": "MultiPolygon", "coordinates": [[[[128.38635301716164, 36.0967942365486], [128.38564277277052, 36.09679058868794], [128.38563866700406, 36.09732961888948], [128.3863488118151, 36.09733384305175], [128.38635301716164, 36.0967942365486]]]]}, "properties": {"role": "neighbor", "pnu": "4719011300102950000", "address": null, "area_m2": null, "shifted_m": null, "ledger_dongs": 2}, "id": "4719011300102950000"}, {"type": "Feature", "geometry": {"type": "MultiPolygon", "coordinates": [[[[128.38365791211726, 36.097344855025554], [128.38365771707979, 36.0969569516187], [128.38366040160005, 36.09659412533504], [128.3836610010722, 36.09651328199792], [128.38266957509828, 36.096507229304535], [128.3826690199048, 36.09672818202539], [128.3826684689031, 36.096944349401674], [128.38266747564995, 36.09733448162168], [128.38338586460463, 36.09734232564523], [128.3834083936846, 36.09734253196548], [128.38365791211726, 36.097344855025554]]]]}, "properties": {"role": "neighbor", "pnu": "4719011300102930000", "address": null, "area_m2": null, "shifted_m": null, "ledger_dongs": 8}, "id": "4719011300102930000"}, {"type": "Feature", "geometry": {"type": "MultiPolygon", "coordinates": [[[[128.38551480342028, 36.098625183488345], [128.38641435433001, 36.098631372067615], [128.38684369471127, 36.0986334037436], [128.3875661336868, 36.098646100985455], [128.38767850135667, 36.09864739755949], [128.38853804968258, 36.09864417307707], [128.38901391134144, 36.09864279408556], [128.38901434016216, 36.09868770294684], [128.38919775119084, 36.09868945129767], [128.38920409277975, 36.0974811940581], [128.38852721802905, 36.09747801313032], [128.3885164249525, 36.09747796693524], [128.3874562314047, 36.09747290875623], [128.38743524493853, 36.09747281023315], [128.38645587346227, 36.097470040819815], [128.3864342987042, 36.0974699120662], [128.3855253809601, 36.09746474797567], [128.3855248598951, 36.09750875076928], [128.38552312119253, 36.09812142089054], [128.38551480342028, 36.098625183488345]]]]}, "properties": {"role": "neighbor", "pnu": "4719011300102610001", "address": null, "area_m2": null, "shifted_m": null, "ledger_dongs": 22}, "id": "4719011300102610001"}, {"type": "Feature", "geometry": {"type": "MultiPolygon", "coordinates": [[[[128.38449651285538, 36.09824814700118], [128.3844970049395, 36.097997688778705], [128.38449752564188, 36.09772652117765], [128.38449805477225, 36.097458534834686], [128.38432588227445, 36.097457053469995], [128.3838149132673, 36.09745308708937], [128.38376051246465, 36.09749998436013], [128.38375615309675, 36.09811232546541], [128.38376402069065, 36.09824923084955], [128.3843196646425, 36.098252219957224], [128.38449651285538, 36.09824814700118]]]]}, "properties": {"role": "neighbor", "pnu": "4719011300102650019", "address": null, "area_m2": null, "shifted_m": null, "ledger_dongs": 2}, "id": "4719011300102650019"}, {"type": "Feature", "geometry": {"type": "MultiPolygon", "coordinates": [[[[128.38357717855013, 36.10056380331828], [128.3838049566333, 36.10056422964221], [128.38374891602538, 36.10051532119006], [128.3837517729995, 36.10004674955373], [128.38375329907765, 36.09979502606264], [128.38375606257173, 36.09934263938777], [128.38378806465772, 36.09931444367919], [128.3846044045252, 36.099316458936805], [128.3846646772092, 36.09936517249383], [128.3846655044194, 36.099283483231225], [128.38518427792013, 36.09928497183659], [128.38523018075648, 36.09924988097675], [128.38523074713828, 36.099190143528155], [128.38517396278513, 36.09922937800364], [128.38439238562415, 36.09922537376469], [128.3837901578257, 36.09922435278271], [128.38375385972734, 36.09919277697874], [128.38375803326457, 36.09880425635865], [128.38375980113474, 36.09864080632726], [128.38376159113878, 36.09847452664625], [128.38376402069065, 36.09824923084955], [128.38375615309675, 36.09811232546541], [128.38376051246465, 36.09749998436013], [128.3838149132673, 36.09745308708937], [128.3835932031968, 36.09745174585619], [128.38364624511024, 36.097496178008285], [128.3836455150393, 36.09771853567619], [128.38364462712394, 36.09799084588773], [128.38365281364423, 36.09824586383738], [128.38365008639326, 36.09847226656821], [128.38364598131736, 36.09899667006185], [128.38364439391572, 36.099199449252936], [128.38361066594254, 36.09922398617648], [128.38211722021884, 36.09921540231324], [128.38206338872237, 36.09917532720789], [128.38206311170637, 36.09935069871399], [128.38211331283225, 36.09930861094846], [128.382838548498, 36.099309437348786], [128.38360082893325, 36.09931029717233], [128.38364549084685, 36.0993444485086], [128.38364358636426, 36.09951964041131], [128.38364067687974, 36.09978916443131], [128.38363855262355, 36.100515842658915], [128.38357717855013, 36.10056380331828]]]]}, "properties": {"role": "neighbor", "pnu": "4719011300102650021", "address": null, "area_m2": null, "shifted_m": null, "ledger_dongs": 0}, "id": "4719011300102650021"}, {"type": "Feature", "geometry": {"type": "MultiPolygon", "coordinates": [[[[128.38284336355346, 36.097716190682085], [128.3836455150393, 36.09771853567619], [128.38364624511024, 36.097496178008285], [128.3835932031968, 36.09745174585619], [128.38340079937078, 36.097450167856564], [128.38337858095773, 36.09744999017314], [128.38284363001102, 36.09744559855552], [128.38284336355346, 36.097716190682085]]]]}, "properties": {"role": "neighbor", "pnu": "4719011300102650031", "address": null, "area_m2": null, "shifted_m": null, "ledger_dongs": 0}, "id": "4719011300102650031"}, {"type": "Feature", "geometry": {"type": "MultiPolygon", "coordinates": [[[[128.38449752564188, 36.09772652117765], [128.38524500711006, 36.09772787104178], [128.3852462337988, 36.09746124006713], [128.3848326194595, 36.09745974323128], [128.38481461981672, 36.09745967764279], [128.38449805477225, 36.097458534834686], [128.38449752564188, 36.09772652117765]]]]}, "properties": {"role": "neighbor", "pnu": "4719011300102650034", "address": null, "area_m2": null, "shifted_m": null, "ledger_dongs": 0}, "id": "4719011300102650034"}, {"type": "Feature", "geometry": {"type": "MultiPolygon", "coordinates": [[[[128.38443324302898, 36.095504882469704], [128.3852573394526, 36.09550678884577], [128.3852579795664, 36.09544328473223], [128.38525909366743, 36.09533186637022], [128.38443513726136, 36.095332168669955], [128.38443324302898, 36.095504882469704]]]]}, "properties": {"role": "neighbor", "pnu": "4719011300102930018", "address": null, "area_m2": null, "shifted_m": null, "ledger_dongs": 1}, "id": "4719011300102930018"}, {"type": "Feature", "geometry": {"type": "MultiPolygon", "coordinates": [[[[128.38524850448266, 36.0969655931274], [128.38524879901126, 36.09670030010975], [128.3848784064942, 36.09669736749881], [128.3848733872064, 36.096964618833525], [128.38524850448266, 36.0969655931274]]]]}, "properties": {"role": "neighbor", "pnu": "4719011300102930012", "address": null, "area_m2": null, "shifted_m": null, "ledger_dongs": 2}, "id": "4719011300102930012"}, {"type": "Feature", "geometry": {"type": "MultiPolygon", "coordinates": [[[[128.38314355905848, 36.09411157995483], [128.38313551906577, 36.09450433454725], [128.38313599651573, 36.09450433701079], [128.38312071790554, 36.09525838042873], [128.38366266114792, 36.09525987789874], [128.38434304682457, 36.09526173447961], [128.38434304097683, 36.09526248244363], [128.38525976049777, 36.095266361733195], [128.38526468218194, 36.09477956899417], [128.3852665042035, 36.09459879807173], [128.38494453646234, 36.094597069971705], [128.38494748653585, 36.09412126167174], [128.38314355905848, 36.09411157995483]]]]}, "properties": {"role": "neighbor", "pnu": "4719011300102930002", "address": null, "area_m2": null, "shifted_m": null, "ledger_dongs": 3}, "id": "4719011300102930002"}, {"type": "Feature", "geometry": {"type": "MultiPolygon", "coordinates": [[[[128.38266957509828, 36.096507229304535], [128.3836610010722, 36.09651328199792], [128.3836612778852, 36.09630342155824], [128.38366182392375, 36.09588750367153], [128.38206912768547, 36.09588012004306], [128.38206517933236, 36.096503539032426], [128.38266957509828, 36.096507229304535]]]]}, "properties": {"role": "neighbor", "pnu": "4719011300102930004", "address": null, "area_m2": null, "shifted_m": null, "ledger_dongs": 5}, "id": "4719011300102930004"}, {"type": "Feature", "geometry": {"type": "MultiPolygon", "coordinates": [[[[128.38366182392375, 36.09588750367153], [128.3836621049397, 36.09567710251308], [128.38366266114792, 36.09525987789874], [128.38312071790554, 36.09525838042873], [128.38207128659718, 36.09525548413466], [128.38206912768547, 36.09588012004306], [128.38366182392375, 36.09588750367153]]]]}, "properties": {"role": "neighbor", "pnu": "4719011300102930005", "address": null, "area_m2": null, "shifted_m": null, "ledger_dongs": 6}, "id": "4719011300102930005"}, {"type": "Feature", "geometry": {"type": "MultiPolygon", "coordinates": [[[[128.3841708283472, 36.097349643180934], [128.38425384951933, 36.09735040426587], [128.38425321608136, 36.0965950262973], [128.38366040160005, 36.09659412533504], [128.38365771707979, 36.0969569516187], [128.38391619358765, 36.096958094690855], [128.38417315998998, 36.09695922942647], [128.3841708283472, 36.097349643180934]]]]}, "properties": {"role": "neighbor", "pnu": "4719011300102930006", "address": null, "area_m2": null, "shifted_m": null, "ledger_dongs": 3}, "id": "4719011300102930006"}, {"type": "Feature", "geometry": {"type": "MultiPolygon", "coordinates": [[[[128.38429813042097, 36.09735081257265], [128.38432670739354, 36.097351527503065], [128.38472817783972, 36.09735240484], [128.3847307334064, 36.09696424520834], [128.38432974416088, 36.09696314506786], [128.38429764121227, 36.09696320503283], [128.38429813042097, 36.09735081257265]]]]}, "properties": {"role": "neighbor", "pnu": "4719011300102930010", "address": null, "area_m2": null, "shifted_m": null, "ledger_dongs": 2}, "id": "4719011300102930010"}, {"type": "Feature", "geometry": {"type": "MultiPolygon", "coordinates": [[[[128.38472817783972, 36.09735240484], [128.38484683788892, 36.097352519829464], [128.3848637162959, 36.097352543595704], [128.385248089671, 36.097352961724496], [128.38524850448266, 36.0969655931274], [128.3848733872064, 36.096964618833525], [128.3847307334064, 36.09696424520834], [128.38472817783972, 36.09735240484]]]]}, "properties": {"role": "neighbor", "pnu": "4719011300102930011", "address": null, "area_m2": null, "shifted_m": null, "ledger_dongs": 1}, "id": "4719011300102930011"}, {"type": "Feature", "geometry": {"type": "MultiPolygon", "coordinates": [[[[128.38429764121227, 36.09696320503283], [128.38432974416088, 36.09696314506786], [128.3847307334064, 36.09696424520834], [128.3848733872064, 36.096964618833525], [128.3848784064942, 36.09669736749881], [128.38524879901126, 36.09670030010975], [128.38524929124108, 36.096586048812966], [128.38433277107617, 36.096576015221174], [128.38429715451696, 36.096575273049936], [128.38429764121227, 36.09696320503283]]]]}, "properties": {"role": "neighbor", "pnu": "4719011300102930013", "address": null, "area_m2": null, "shifted_m": null, "ledger_dongs": 2}, "id": "4719011300102930013"}, {"type": "Feature", "geometry": {"type": "MultiPolygon", "coordinates": [[[[128.38524929124108, 36.096586048812966], [128.3852501926219, 36.09637387548654], [128.38525049835883, 36.09630484532135], [128.3843348876066, 36.09630531538846], [128.38429680780044, 36.09630576813693], [128.38429715451696, 36.096575273049936], [128.38433277107617, 36.096576015221174], [128.38524929124108, 36.096586048812966]]]]}, "properties": {"role": "neighbor", "pnu": "4719011300102930014", "address": null, "area_m2": null, "shifted_m": null, "ledger_dongs": 3}, "id": "4719011300102930014"}, {"type": "Feature", "geometry": {"type": "MultiPolygon", "coordinates": [[[[128.3836621049397, 36.09567710251308], [128.38433977653665, 36.09568001756163], [128.3844313208425, 36.09567974998293], [128.38443324302898, 36.095504882469704], [128.38443513726136, 36.095332168669955], [128.38525909366743, 36.09533186637022], [128.38525976049777, 36.095266361733195], [128.38434304393587, 36.09526210395577], [128.38366266114792, 36.09525987789874], [128.3836621049397, 36.09567710251308]]]]}, "properties": {"role": "neighbor", "pnu": "4719011300102930016", "address": null, "area_m2": null, "shifted_m": null, "ledger_dongs": 2}, "id": "4719011300102930016"}, {"type": "Feature", "geometry": {"type": "MultiPolygon", "coordinates": [[[[128.3852555924825, 36.0956793592274], [128.3852573394526, 36.09550678884577], [128.38443324302898, 36.095504882469704], [128.3844313208425, 36.09567974998293], [128.3852555924825, 36.0956793592274]]]]}, "properties": {"role": "neighbor", "pnu": "4719011300102930017", "address": null, "area_m2": null, "shifted_m": null, "ledger_dongs": 1}, "id": "4719011300102930017"}, {"type": "Feature", "geometry": {"type": "MultiPolygon", "coordinates": [[[[128.38365791211726, 36.097344855025554], [128.3839161689798, 36.09734726765941], [128.38391619358765, 36.096958094690855], [128.38365771707979, 36.0969569516187], [128.38365791211726, 36.097344855025554]]]]}, "properties": {"role": "neighbor", "pnu": "4719011300102930019", "address": null, "area_m2": null, "shifted_m": null, "ledger_dongs": 1}, "id": "4719011300102930019"}, {"type": "Feature", "geometry": {"type": "MultiPolygon", "coordinates": [[[[128.3839161689798, 36.09734726765941], [128.3841708283472, 36.097349643180934], [128.38417315998998, 36.09695922942647], [128.38391619358765, 36.096958094690855], [128.3839161689798, 36.09734726765941]]]]}, "properties": {"role": "neighbor", "pnu": "4719011300102930020", "address": null, "area_m2": null, "shifted_m": null, "ledger_dongs": 1}, "id": "4719011300102930020"}, {"type": "Feature", "geometry": {"type": "MultiPolygon", "coordinates": [[[[128.38425384951933, 36.09735040426587], [128.38429813042097, 36.09735081257265], [128.38429764121227, 36.09696320503283], [128.38429715451696, 36.096575273049936], [128.38429680780044, 36.09630576813693], [128.3836612778852, 36.09630342155824], [128.3836610010722, 36.09651328199792], [128.38366040160005, 36.09659412533504], [128.38425321608136, 36.0965950262973], [128.38425384951933, 36.09735040426587]]]]}, "properties": {"role": "neighbor", "pnu": "4719011300102930021", "address": null, "area_m2": null, "shifted_m": null, "ledger_dongs": 0}, "id": "4719011300102930021"}, {"type": "Feature", "geometry": {"type": "MultiPolygon", "coordinates": [[[[128.38314355905848, 36.09411157995483], [128.38494748653585, 36.09412126167174], [128.38494453646234, 36.094597069971705], [128.38526815862565, 36.09459880657874], [128.38526976522857, 36.09451532786806], [128.38527827255857, 36.093688657671066], [128.38435536489487, 36.09368612557304], [128.38329254969028, 36.09367927797316], [128.38315241002482, 36.09367906866883], [128.38314355905848, 36.09411157995483]]]]}, "properties": {"role": "neighbor", "pnu": "4719011300102930023", "address": null, "area_m2": null, "shifted_m": null, "ledger_dongs": 1}, "id": "4719011300102930023"}, {"type": "Feature", "geometry": {"type": "MultiPolygon", "coordinates": [[[[128.38272736362654, 36.0941894671534], [128.3827263975637, 36.094444456078904], [128.38209632563107, 36.09444327397025], [128.38207420444502, 36.0944251537044], [128.3820736483668, 36.09449885078054], [128.3820735952025, 36.094515531675576], [128.38209592230652, 36.094497505965066], [128.3831358555674, 36.09449965005501], [128.38315241002482, 36.09367906866883], [128.38272893769124, 36.0936784149957], [128.38272736362654, 36.0941894671534]]]]}, "properties": {"role": "neighbor", "pnu": "4719011300102930025", "address": null, "area_m2": null, "shifted_m": null, "ledger_dongs": 2}, "id": "4719011300102930025"}, {"type": "Feature", "geometry": {"type": "MultiPolygon", "coordinates": [[[[128.3820735952025, 36.094515531675576], [128.38207266962823, 36.09481178662326], [128.38312958481765, 36.09481395547632], [128.3831357633425, 36.0945043358077], [128.3831358555674, 36.09449965005501], [128.38209592230652, 36.094497505965066], [128.3820735952025, 36.094515531675576]]]]}, "properties": {"role": "neighbor", "pnu": "4719011300102930026", "address": null, "area_m2": null, "shifted_m": null, "ledger_dongs": 2}, "id": "4719011300102930026"}, {"type": "Feature", "geometry": {"type": "MultiPolygon", "coordinates": [[[[128.38207266962823, 36.09481178662326], [128.38207128659718, 36.09525548413466], [128.38312071790554, 36.09525838042873], [128.38312958481765, 36.09481395547632], [128.38207266962823, 36.09481178662326]]]]}, "properties": {"role": "neighbor", "pnu": "4719011300102930027", "address": null, "area_m2": null, "shifted_m": null, "ledger_dongs": 0}, "id": "4719011300102930027"}, {"type": "Feature", "geometry": {"type": "MultiPolygon", "coordinates": [[[[128.38635730575675, 36.09624393320738], [128.38564696694542, 36.09624021281351], [128.38564277277052, 36.09679058868794], [128.38635301716164, 36.0967942365486], [128.38635730575675, 36.09624393320738]]]]}, "properties": {"role": "neighbor", "pnu": "4719011300102950009", "address": null, "area_m2": null, "shifted_m": null, "ledger_dongs": 2}, "id": "4719011300102950009"}, {"type": "Feature", "geometry": {"type": "MultiPolygon", "coordinates": [[[[128.3864602323962, 36.09554821413507], [128.38565227608132, 36.095544064870865], [128.3856477972321, 36.0961309468641], [128.3864556570921, 36.096135420121854], [128.3864602323962, 36.09554821413507]]]]}, "properties": {"role": "neighbor", "pnu": "4719011300102950010", "address": null, "area_m2": null, "shifted_m": null, "ledger_dongs": 2}, "id": "4719011300102950010"}, {"type": "Feature", "geometry": {"type": "MultiPolygon", "coordinates": [[[[128.3860608817709, 36.09494476760601], [128.38565685674547, 36.09494269208166], [128.38565227608132, 36.095544064870865], [128.38605624866628, 36.095546140155264], [128.3860608817709, 36.09494476760601]]]]}, "properties": {"role": "neighbor", "pnu": "4719011300102950024", "address": null, "area_m2": null, "shifted_m": null, "ledger_dongs": 2}, "id": "4719011300102950024"}, {"type": "Feature", "geometry": {"type": "MultiPolygon", "coordinates": [[[[128.3861215315229, 36.09428958373484], [128.38566185929704, 36.094287222487395], [128.38565789697654, 36.09480650840712], [128.38626555818638, 36.09480988184371], [128.38626960730429, 36.09429034399598], [128.3861215315229, 36.09428958373484]]]]}, "properties": {"role": "neighbor", "pnu": "4719011300102950025", "address": null, "area_m2": null, "shifted_m": null, "ledger_dongs": 2}, "id": "4719011300102950025"}, {"type": "Feature", "geometry": {"type": "MultiPolygon", "coordinates": [[[[128.38563866700406, 36.09732961888948], [128.38556872402768, 36.097329205353816], [128.3855272618572, 36.097296296799726], [128.38552704213527, 36.09735575668025], [128.3865206235005, 36.097360228756735], [128.386541498824, 36.0973603358815], [128.38740682900342, 36.09736432265195], [128.3874289264614, 36.097364345764994], [128.388484134224, 36.097369207447606], [128.3885023453213, 36.09736921048255], [128.3892024491296, 36.09737242912661], [128.3892025442605, 36.09736159721668], [128.38920262821745, 36.09735077426161], [128.38920262828736, 36.09735076525001], [128.3884875972074, 36.09734653300558], [128.38777454276027, 36.09734230661729], [128.38706167721816, 36.09733807695457], [128.3863488118151, 36.09733384305175], [128.38563866700406, 36.09732961888948]]]]}, "properties": {"role": "neighbor", "pnu": "4719011300102950053", "address": null, "area_m2": null, "shifted_m": null, "ledger_dongs": 0}, "id": "4719011300102950053"}, {"type": "Feature", "geometry": {"type": "MultiPolygon", "coordinates": [[[[128.3856477972321, 36.0961309468641], [128.3855893474576, 36.09613061944364], [128.38553182733364, 36.09608230799724], [128.38553171492998, 36.096116634038616], [128.38553159819574, 36.096131593319846], [128.38553102810806, 36.0962857582715], [128.3855883170821, 36.09623990238788], [128.38564696694542, 36.09624021281351], [128.38635730575675, 36.09624393320738], [128.38707016524617, 36.09624766231429], [128.38778302493537, 36.096251378169526], [128.38849607344798, 36.096255099761734], [128.38920967727734, 36.09625881994826], [128.38920977721105, 36.09625882045889], [128.38921018194227, 36.09615081396521], [128.38874682488563, 36.09614823840111], [128.38806427094212, 36.09614431392514], [128.38726287310806, 36.096139884633224], [128.3864556570921, 36.096135420121854], [128.3856477972321, 36.0961309468641]]]]}, "properties": {"role": "neighbor", "pnu": "4719011300102950054", "address": null, "area_m2": null, "shifted_m": null, "ledger_dongs": 0}, "id": "4719011300102950054"}, {"type": "Feature", "geometry": {"type": "MultiPolygon", "coordinates": [[[[128.38555107352423, 36.09475995326549], [128.38554599705557, 36.09496939259069], [128.38554551958086, 36.09498931562073], [128.38560460447718, 36.094942288376416], [128.38565685674547, 36.09494269208166], [128.38646491794137, 36.09494684182535], [128.3872721236274, 36.094951071855085], [128.38807351107437, 36.09495528468992], [128.38830377650694, 36.094956490149855], [128.38853403077957, 36.0949577041221], [128.38875605739608, 36.094958866572824], [128.38921105940952, 36.09496116507158], [128.38921660941307, 36.094965717441305], [128.38921667561505, 36.09496577185136], [128.3892177832877, 36.094822964657304], [128.38921770507352, 36.094823027341555], [128.3892141075746, 36.0948258657594], [128.38875715218714, 36.09482354827632], [128.3885348929168, 36.09482236661545], [128.38830482814913, 36.09482110855633], [128.38807456353152, 36.094819849032575], [128.38747156523868, 36.09481654470846], [128.38686855600764, 36.09481322828192], [128.38626555818638, 36.09480988184371], [128.38565789697654, 36.09480650840712], [128.38560750927823, 36.09480623144089], [128.38555107352423, 36.09475995326549]]]]}, "properties": {"role": "neighbor", "pnu": "4719011300102950055", "address": null, "area_m2": null, "shifted_m": null, "ledger_dongs": 0}, "id": "4719011300102950055"}, {"type": "Feature", "geometry": {"type": "MultiPolygon", "coordinates": [[[[128.38555107352423, 36.09475995326549], [128.38560750927823, 36.09480623144089], [128.38565789697654, 36.09480650840712], [128.38566185929704, 36.094287222487395], [128.38566558706273, 36.09379799027123], [128.385615877315, 36.09379771679515], [128.38555890953523, 36.09384675559865], [128.3855569683915, 36.094516777289456], [128.38555107352423, 36.09475995326549]]]]}, "properties": {"role": "neighbor", "pnu": "4719011300102950059", "address": null, "area_m2": null, "shifted_m": null, "ledger_dongs": 0}, "id": "4719011300102950059"}, {"type": "Feature", "geometry": {"type": "MultiPolygon", "coordinates": [[[[128.385535359141, 36.09541056435843], [128.38553369284432, 36.09547895670421], [128.38553182733364, 36.09608230799724], [128.3855893474576, 36.09613061944364], [128.3856477972321, 36.0961309468641], [128.38565227608132, 36.095544064870865], [128.38565685674547, 36.09494269208166], [128.38560460447718, 36.094942288376416], [128.38554551958086, 36.09498931562073], [128.38553729520982, 36.09533036770747], [128.38553729513947, 36.09533037671905], [128.385535359141, 36.09541056435843]]]]}, "properties": {"role": "neighbor", "pnu": "4719011300102950060", "address": null, "area_m2": null, "shifted_m": null, "ledger_dongs": 0}, "id": "4719011300102950060"}, {"type": "Feature", "geometry": {"type": "MultiPolygon", "coordinates": [[[[128.38553102810806, 36.0962857582715], [128.3855272618572, 36.097296296799726], [128.38556872402768, 36.097329205353816], [128.38563866700406, 36.09732961888948], [128.38564277277052, 36.09679058868794], [128.38564696694542, 36.09624021281351], [128.3855883170821, 36.09623990238788], [128.38553102810806, 36.0962857582715]]]]}, "properties": {"role": "neighbor", "pnu": "4719011300102950061", "address": null, "area_m2": null, "shifted_m": null, "ledger_dongs": 0}, "id": "4719011300102950061"}, {"type": "Feature", "geometry": {"type": "MultiPolygon", "coordinates": [[[[128.38284363001102, 36.09744559855552], [128.38337858095773, 36.09744999017314], [128.38338586460463, 36.09734232564523], [128.38266747564995, 36.09733448162168], [128.38244540801685, 36.09733205498301], [128.38254815121155, 36.09744317160655], [128.38284363001102, 36.09744559855552]]]]}, "properties": {"role": "neighbor", "pnu": "4719011300103520007", "address": null, "area_m2": null, "shifted_m": null, "ledger_dongs": 0}, "id": "4719011300103520007"}, {"type": "Feature", "geometry": {"type": "MultiPolygon", "coordinates": [[[[128.38337858095773, 36.09744999017314], [128.38340079937078, 36.097450167856564], [128.3834083936846, 36.09734253196548], [128.38338586460463, 36.09734232564523], [128.38337858095773, 36.09744999017314]]]]}, "properties": {"role": "neighbor", "pnu": "4719011300103520008", "address": null, "area_m2": null, "shifted_m": null, "ledger_dongs": 0}, "id": "4719011300103520008"}, {"type": "Feature", "geometry": {"type": "MultiPolygon", "coordinates": [[[[128.38481461981672, 36.09745967764279], [128.38484683788892, 36.097352519829464], [128.38472817783972, 36.09735240484], [128.38432670739354, 36.097351527503065], [128.38429813042097, 36.09735081257265], [128.38425384951933, 36.09735040426587], [128.3841708283472, 36.097349643180934], [128.3839161689798, 36.09734726765941], [128.38365791211726, 36.097344855025554], [128.3834083936846, 36.09734253196548], [128.38340079937078, 36.097450167856564], [128.3835932031968, 36.09745174585619], [128.3838149132673, 36.09745308708937], [128.38432588227445, 36.097457053469995], [128.38449805477225, 36.097458534834686], [128.38481461981672, 36.09745967764279]]]]}, "properties": {"role": "neighbor", "pnu": "4719011300103520009", "address": null, "area_m2": null, "shifted_m": null, "ledger_dongs": 0}, "id": "4719011300103520009"}, {"type": "Feature", "geometry": {"type": "MultiPolygon", "coordinates": [[[[128.3848326194595, 36.09745974323128], [128.3848637162959, 36.097352543595704], [128.38484683788892, 36.097352519829464], [128.38481461981672, 36.09745967764279], [128.3848326194595, 36.09745974323128]]]]}, "properties": {"role": "neighbor", "pnu": "4719011300103520010", "address": null, "area_m2": null, "shifted_m": null, "ledger_dongs": 0}, "id": "4719011300103520010"}, {"type": "Feature", "geometry": {"type": "MultiPolygon", "coordinates": [[[[128.38652064514656, 36.09736030096355], [128.38552665328808, 36.09735578171745], [128.3855316421887, 36.0961316476178], [128.38550042190982, 36.09612963067684], [128.38529178953516, 36.09608647215746], [128.38526233971982, 36.09620615297612], [128.3852501926219, 36.09637387548654], [128.38524929124108, 36.096586048812966], [128.38524879901126, 36.09670030010975], [128.38524850448266, 36.0969655931274], [128.38524813952188, 36.097302485910745], [128.38524762330763, 36.09735295932628], [128.3848637162959, 36.097352543595704], [128.3848326194595, 36.09745974323128], [128.38524651139647, 36.097461241494685], [128.38524600875766, 36.09750997566764], [128.38524500711006, 36.09772787104178], [128.38524376412107, 36.09799943147033], [128.3852426123741, 36.09825076948784], [128.3852366322741, 36.09848334677323], [128.385234085435, 36.09884082060773], [128.38528547534486, 36.098809777279946], [128.38548420680584, 36.098713866239365], [128.3855137918969, 36.098686495752005], [128.38551480342028, 36.098625183488345], [128.38552312119253, 36.09812142089054], [128.3855253809601, 36.09746474797567], [128.3864342987042, 36.0974699120662], [128.38652064514656, 36.09736030096355]]]]}, "properties": {"role": "neighbor", "pnu": "4719011300103520014", "address": null, "area_m2": null, "shifted_m": null, "ledger_dongs": 0}, "id": "4719011300103520014"}, {"type": "Feature", "geometry": {"type": "MultiPolygon", "coordinates": [[[[128.38525156755273, 36.09617358237263], [128.38527783596584, 36.096077379419945], [128.38525237538875, 36.096074373677666], [128.38525156755273, 36.09617358237263]]]]}, "properties": {"role": "neighbor", "pnu": "4719011300103520028", "address": null, "area_m2": null, "shifted_m": null, "ledger_dongs": 0}, "id": "4719011300103520028"}, {"type": "Feature", "geometry": {"type": "MultiPolygon", "coordinates": [[[[128.3852501926219, 36.09637387548654], [128.38526233971982, 36.09620615297612], [128.38529178953516, 36.09608647215746], [128.38550042190982, 36.09612963067684], [128.3855316421887, 36.0961316476178], [128.38553169223036, 36.096116697005755], [128.38548610327769, 36.096110397613465], [128.38529863033258, 36.096069321492664], [128.38528053050877, 36.09606079321454], [128.3852525281967, 36.09605480045029], [128.38525237538875, 36.096074373677666], [128.38527783596584, 36.096077379419945], [128.38525156755273, 36.09617358237263], [128.38525049835883, 36.09630484532135], [128.3852501926219, 36.09637387548654]]]]}, "properties": {"role": "neighbor", "pnu": "4719011300103520029", "address": null, "area_m2": null, "shifted_m": null, "ledger_dongs": 0}, "id": "4719011300103520029"}, {"type": "Feature", "geometry": {"type": "MultiPolygon", "coordinates": [[[[128.3852525281967, 36.09605480045029], [128.38528053050877, 36.09606079321454], [128.38529863033258, 36.096069321492664], [128.38548610327769, 36.096110397613465], [128.38553169223036, 36.096116697005755], [128.38553372608487, 36.095478965887104], [128.385535359141, 36.09541056435843], [128.3855145408273, 36.09539894905819], [128.38549924432985, 36.095425356635346], [128.38544439918343, 36.09556649066189], [128.3853133528463, 36.095489152039946], [128.3852579795664, 36.09544328473223], [128.3852573394526, 36.09550678884577], [128.3852555924825, 36.0956793592274], [128.3852525281967, 36.09605480045029]]]]}, "properties": {"role": "neighbor", "pnu": "4719011300103520030", "address": null, "area_m2": null, "shifted_m": null, "ledger_dongs": 0}, "id": "4719011300103520030"}, {"type": "Feature", "geometry": {"type": "MultiPolygon", "coordinates": [[[[128.3852579795664, 36.09544328473223], [128.3853133528463, 36.095489152039946], [128.38544439918343, 36.09556649066189], [128.38549924432985, 36.095425356635346], [128.3855145408273, 36.09539894905819], [128.38553729513947, 36.09533037671905], [128.38554596332293, 36.09496944648924], [128.38526468218194, 36.09477956899417], [128.38525976049777, 36.095266361733195], [128.38525909366743, 36.09533186637022], [128.3852579795664, 36.09544328473223]]]]}, "properties": {"role": "neighbor", "pnu": "4719011300103520032", "address": null, "area_m2": null, "shifted_m": null, "ledger_dongs": 0}, "id": "4719011300103520032"}, {"type": "Feature", "geometry": {"type": "MultiPolygon", "coordinates": [[[[128.38922818871387, 36.092880088579136], [128.38936113543204, 36.092882696279055], [128.38956308879588, 36.092882817430514], [128.3893934006024, 36.09265671435963], [128.38936512756135, 36.09265711067097], [128.3892292766377, 36.09265534427852], [128.38858902575143, 36.0926541263479], [128.38556477919988, 36.09263904513762], [128.3855703903642, 36.090604771928845], [128.3855797030117, 36.089611707980616], [128.38558683520137, 36.0888525658385], [128.38558957643752, 36.08856235787171], [128.3862258106247, 36.088567509295366], [128.38724475600117, 36.08857574591792], [128.38925288201062, 36.088591978041784], [128.38925379235917, 36.08847744030006], [128.38714067334718, 36.08846329253976], [128.38559075061127, 36.08845168768024], [128.38559257066044, 36.08815146264065], [128.38549954900697, 36.08797361060945], [128.38541402939148, 36.08780480905568], [128.3853223251934, 36.087704376639856], [128.38531735875986, 36.08836355103903], [128.38531698130913, 36.08841334033273], [128.38531670639378, 36.088449990674675], [128.38518153189764, 36.08844927760588], [128.3843963246339, 36.088446066288235], [128.383366908893, 36.08844095972054], [128.38335165872357, 36.088519681879866], [128.38334072396432, 36.08855065375218], [128.38439546832387, 36.08855562962261], [128.38518347777043, 36.08855986470339], [128.3853152645988, 36.08856075861767], [128.38531500402792, 36.08859557058695], [128.38529850132736, 36.09091068298043], [128.38529008750496, 36.09252212649042], [128.3852894743168, 36.092633403288986], [128.38527868169783, 36.09263338384366], [128.38436362111963, 36.09263000002755], [128.3830248039866, 36.092620457848376], [128.38299588200917, 36.09270651719432], [128.3829618446678, 36.09284598216137], [128.3832980646868, 36.092847410572375], [128.38436185699678, 36.09285566897336], [128.3852858734656, 36.09286284784869], [128.38527827255857, 36.093688657671066], [128.38526976522857, 36.09451532786806], [128.38526815862565, 36.09459880657874], [128.38526468218194, 36.09477956899417], [128.38554596332293, 36.09496944648924], [128.38556179123964, 36.09286688872626], [128.38858361265633, 36.0928779563282], [128.38922818871387, 36.092880088579136]]]]}, "properties": {"role": "neighbor", "pnu": "4719011300103520033", "address": null, "area_m2": null, "shifted_m": null, "ledger_dongs": 0}, "id": "4719011300103520033"}]}