{"type": "FeatureCollection", "frame": "map", "crs_name": "EPSG:4326", "layer": "separation", "features": [{"type": "Feature", "geometry": {"type": "LineString", "coordinates": [[128.38477525284185, 36.09605843311379], [128.3847558134518, 36.09605833330381]]}, "properties": {"level": "경고", "level_rank": 0, "label": "연소확대 우려", "reason": "한쪽이라도 2층 이상 · 실측 1.8 m — 법정선 10 m 미달", "basis": "소방시설법 시행규칙 제17조 제2호", "pair": ["B0001", "B0002"], "dir": "서", "dir8": "서", "az_deg": 269.1, "dist_m": 1.8, "floors": [3, 3], "floors_src": ["ledger", "ledger"], "caveat": "개구부 방향·내화구조 여부는 위성에서 확정할 수 없다 — 현장 확인 대상", "same_parcel": true}, "id": "S:B0001:B0002"}, {"type": "Feature", "geometry": {"type": "LineString", "coordinates": [[128.3847558134518, 36.09605833330381], [128.38477525284185, 36.09605843311379]]}, "properties": {"level": "경고", "level_rank": 0, "label": "연소확대 우려", "reason": "한쪽이라도 2층 이상 · 실측 1.8 m — 법정선 10 m 미달", "basis": "소방시설법 시행규칙 제17조 제2호", "pair": ["B0002", "B0001"], "dir": "동", "dir8": "동", "az_deg": 89.1, "dist_m": 1.8, "floors": [3, 3], "floors_src": ["ledger", "ledger"], "caveat": "개구부 방향·내화구조 여부는 위성에서 확정할 수 없다 — 현장 확인 대상", "same_parcel": true}, "id": "S:B0002:B0001"}, {"type": "Feature", "geometry": {"type": "LineString", "coordinates": [[128.38430411951546, 36.09628816593902], [128.38430389094978, 36.09631746558913]]}, "properties": {"level": "경고", "level_rank": 0, "label": "연소확대 우려", "reason": "한쪽이라도 2층 이상 · 실측 3.3 m — 법정선 10 m 미달", "basis": "소방시설법 시행규칙 제17조 제2호", "pair": ["B0002", "N0019"], "dir": "북", "dir8": "북", "az_deg": 359.1, "dist_m": 3.3, "floors": [3, 3], "floors_src": ["ledger", "ledger"], "caveat": "개구부 방향·내화구조 여부는 위성에서 확정할 수 없다 — 현장 확인 대상", "same_parcel": false, "run_id": 7, "front_m": 120.0, "front_d_m": 14.01, "arc_m": 46.2}, "id": "S:B0002:N0019"}, {"type": "Feature", "geometry": {"type": "LineString", "coordinates": [[128.3847734784258, 36.09628606888345], [128.38477321489674, 36.09631987617533]]}, "properties": {"level": "경고", "level_rank": 0, "label": "연소확대 우려", "reason": "한쪽이라도 2층 이상 · 실측 3.8 m — 법정선 10 m 미달", "basis": "소방시설법 시행규칙 제17조 제2호", "pair": ["B0001", "N0019"], "dir": "북", "dir8": "북", "az_deg": 359.1, "dist_m": 3.8, "floors": [3, 3], "floors_src": ["ledger", "ledger"], "caveat": "개구부 방향·내화구조 여부는 위성에서 확정할 수 없다 — 현장 확인 대상", "same_parcel": false, "run_id": 7, "front_m": 120.0, "front_d_m": 14.01, "arc_m": 46.2}, "id": "S:B0001:N0019"}, {"type": "Feature", "geometry": {"type": "LineString", "coordinates": [[128.38458340714382, 36.09573063104594], [128.38458453349588, 36.095671343509416]]}, "properties": {"level": "경고", "level_rank": 0, "label": "연소확대 우려", "reason": "한쪽이라도 2층 이상 · 실측 6.6 m — 법정선 10 m 미달", "basis": "소방시설법 시행규칙 제17조 제2호", "pair": ["B0002", "N0025"], "dir": "남", "dir8": "남", "az_deg": 178.6, "dist_m": 6.6, "floors": [3, 1], "floors_src": ["ledger", "ledger"], "caveat": "개구부 방향·내화구조 여부는 위성에서 확정할 수 없다 — 현장 확인 대상", "same_parcel": false, "run_id": 1, "front_m": 110.0, "front_d_m": 13.98, "arc_m": 160.5}, "id": "S:B0002:N0025"}, {"type": "Feature", "geometry": {"type": "LineString", "coordinates": [[128.38458340714382, 36.09573063104594], [128.38459118869943, 36.09549931418407]]}, "properties": {"level": "이상없음", "level_rank": 5, "label": "기준선 충족", "reason": "한쪽이라도 2층 이상 · 실측 25.7 m — 법정선 10 m 충족", "basis": "소방시설법 시행규칙 제17조 제2호", "pair": ["B0002", "N0030"], "dir": "남", "dir8": "남", "az_deg": 177.9, "dist_m": 25.7, "floors": [3, 3], "floors_src": ["ledger", "ledger"], "caveat": "개구부 방향·내화구조 여부는 위성에서 확정할 수 없다 — 현장 확인 대상", "same_parcel": false, "run_id": 8, "front_m": null, "front_d_m": 19.26, "arc_m": 174.6, "shadowed": true}, "id": "S:B0002:N0030"}, {"type": "Feature", "geometry": {"type": "LineString", "coordinates": [[128.38387248391481, 36.09572697771563], [128.3838729413575, 36.09566837841365]]}, "properties": {"level": "경고", "level_rank": 0, "label": "연소확대 우려", "reason": "한쪽이라도 2층 이상 · 실측 6.5 m — 법정선 10 m 미달", "basis": "소방시설법 시행규칙 제17조 제2호", "pair": ["B0002", "N0026"], "dir": "남", "dir8": "남", "az_deg": 179.1, "dist_m": 6.5, "floors": [3, 3], "floors_src": ["ledger", "ledger"], "caveat": "개구부 방향·내화구조 여부는 위성에서 확정할 수 없다 — 현장 확인 대상", "same_parcel": false, "run_id": 2, "front_m": 52.0, "front_d_m": 1.78, "arc_m": 242.8}, "id": "S:B0002:N0026"}, {"type": "Feature", "geometry": {"type": "LineString", "coordinates": [[128.38378917260823, 36.09572654931483], [128.38377270979544, 36.09569611033888]]}, "properties": {"level": "경고", "level_rank": 0, "label": "연소확대 우려", "reason": "한쪽이라도 2층 이상 · 실측 3.7 m — 법정선 10 m 미달", "basis": "소방시설법 시행규칙 제17조 제2호", "pair": ["B0002", "N0027"], "dir": "남", "dir8": "남서", "az_deg": 203.2, "dist_m": 3.7, "floors": [3, 3], "floors_src": ["ledger", "ledger"], "caveat": "개구부 방향·내화구조 여부는 위성에서 확정할 수 없다 — 현장 확인 대상", "same_parcel": false, "run_id": 3, "front_m": 20.0, "front_d_m": 0.0, "arc_m": 278.9}, "id": "S:B0002:N0027"}, {"type": "Feature", "geometry": {"type": "LineString", "coordinates": [[128.38378797603963, 36.0958798090274], [128.38365467770683, 36.09587912345696]]}, "properties": {"level": "이상없음", "level_rank": 5, "label": "기준선 충족", "reason": "한쪽이라도 2층 이상 · 실측 12.0 m — 법정선 10 m 충족", "basis": "소방시설법 시행규칙 제17조 제2호", "pair": ["B0002", "N0023"], "dir": "서", "dir8": "서", "az_deg": 269.1, "dist_m": 12.0, "floors": [3, 2], "floors_src": ["ledger", "ledger"], "caveat": "개구부 방향·내화구조 여부는 위성에서 확정할 수 없다 — 현장 확인 대상", "same_parcel": false, "run_id": 4, "front_m": 24.0, "front_d_m": 0.61, "arc_m": 301.0}, "id": "S:B0002:N0023"}, {"type": "Feature", "geometry": {"type": "LineString", "coordinates": [[128.38378742394698, 36.09595052260177], [128.383640240241, 36.095949765610385]]}, "properties": {"level": "이상없음", "level_rank": 5, "label": "기준선 충족", "reason": "한쪽이라도 2층 이상 · 실측 13.3 m — 법정선 10 m 충족", "basis": "소방시설법 시행규칙 제17조 제2호", "pair": ["B0002", "N0021"], "dir": "서", "dir8": "서", "az_deg": 269.1, "dist_m": 13.3, "floors": [3, 3], "floors_src": ["ledger", "ledger"], "caveat": "개구부 방향·내화구조 여부는 위성에서 확정할 수 없다 — 현장 확인 대상", "same_parcel": false, "run_id": 5, "front_m": 42.0, "front_d_m": 2.03, "arc_m": 333.1}, "id": "S:B0002:N0021"}, {"type": "Feature", "geometry": {"type": "LineString", "coordinates": [[128.38378480866027, 36.09628549646454], [128.38378412581682, 36.09632006661121]]}, "properties": {"level": "경고", "level_rank": 0, "label": "연소확대 우려", "reason": "한쪽이라도 2층 이상 · 실측 3.8 m — 법정선 10 m 미달", "basis": "소방시설법 시행규칙 제17조 제2호", "pair": ["B0002", "N0020"], "dir": "북", "dir8": "북", "az_deg": 358.6, "dist_m": 3.8, "floors": [3, null], "floors_src": ["ledger", "empty"], "caveat": "개구부 방향·내화구조 여부는 위성에서 확정할 수 없다 — 현장 확인 대상", "same_parcel": false, "run_id": 6, "front_m": 56.0, "front_d_m": 2.0, "arc_m": 383.2}, "id": "S:B0002:N0020"}]}