{"type": "FeatureCollection", "frame": "map", "crs_name": "EPSG:4326", "layer": "yard", "features": [{"type": "Feature", "geometry": {"type": "Polygon", "coordinates": [[[128.38514109361603, 36.0957273996623], [128.3851407227372, 36.095775007963894], [128.38499909693505, 36.095774281165504], [128.38499946789935, 36.09572667286317], [128.38514109361603, 36.0957273996623]]]}, "properties": {"level": "기록", "level_rank": 4, "label": "기준선 충족", "reason": "인접 건물까지 32.1 m — 기준선 충족", "basis": null, "yard_id": "Y0001", "cls": "other_stock", "cls_ko": "그 밖의 적치물", "law": "종류 미확정 — 현장 확인 대상", "kfs": "—", "subtype": "tarpaulin", "order": "piled", "covered": true, "height_band": "low", "confidence": 0.48, "is_ground": true, "evidence": "A distinct pale beige, irregular rectangular covered-looking patch lies on the open paved yard at the lower right, without a building-scale shadow.", "dist_to_building_m": 32.1, "near_bld_id": "B0001", "wall_note": null, "note": "수량·면적은 산출하지 않는다(근거문서 A5)", "shift_m": [-6.8, 0.0], "grow_m": [2.0, 0.0], "area_m2": 67.3}, "id": "Y0001"}]}