{"type": "FeatureCollection", "frame": "map", "crs_name": "EPSG:4326", "layer": "buildings_near", "features": [{"type": "Feature", "geometry": {"type": "Polygon", "coordinates": [[[128.4802768108649, 35.84263947650958], [128.48027832537548, 35.84240731942273], [128.4804970157726, 35.84240826502923], [128.4804955018992, 35.84264042212407], [128.4802768108649, 35.84263947650958]]]}, "properties": {"score": 0.803, "arch_area_m2": 509.0, "source": "model", "merged_from": 1, "level": null, "label": null, "reason": null, "basis": null, "in_parcel_frac": 0.0, "rival_frac": 1.0, "owner": "2729012500107010009", "owner_by": "parcel", "registered": false, "bld_id": "N0001", "role": "neighbor", "az_deg": 305.7, "dist_m": 80.77, "dong": null}, "id": "N0001"}, {"type": "Feature", "geometry": {"type": "Polygon", "coordinates": [[[128.48200142524735, 35.84264692289227], [128.48200333042038, 35.84235390901209], [128.48260126850803, 35.842356484938136], [128.48259936553396, 35.842649498845894], [128.48200142524735, 35.84264692289227]]]}, "properties": {"score": 0.794, "arch_area_m2": 1755.0, "source": "model", "merged_from": 1, "level": null, "label": null, "reason": null, "basis": null, "in_parcel_frac": 0.0, "rival_frac": 1.0, "owner": "2729012500107060003", "owner_by": "footprint", "registered": true, "bld_id": "N0002", "role": "neighbor", "az_deg": 50.2, "dist_m": 64.92, "dong": null}, "id": "N0002"}, {"type": "Feature", "geometry": {"type": "Polygon", "coordinates": [[[128.48189623205664, 35.842646469407526], [128.48189832817104, 35.84232415414389], [128.48198691155204, 35.842324536027405], [128.481984815796, 35.84264685129554], [128.48189623205664, 35.842646469407526]]]}, "properties": {"score": 0.329, "arch_area_m2": 286.0, "source": "model", "merged_from": 1, "level": null, "label": null, "reason": null, "basis": null, "in_parcel_frac": 0.0, "rival_frac": 1.0, "owner": "2729012500107060003", "owner_by": "footprint", "registered": true, "bld_id": "N0003", "role": "neighbor", "az_deg": 35.7, "dist_m": 58.47, "dong": null}, "id": "N0003"}, {"type": "Feature", "geometry": {"type": "Polygon", "coordinates": [[[128.48087475093223, 35.84264206104379], [128.4805176478273, 35.84264051786033], [128.48052023451933, 35.84224382223504], [128.48069463283844, 35.842244576004425], [128.4806932223954, 35.84246095544564], [128.48087592589945, 35.84246174484358], [128.48087475093223, 35.84264206104379]]]}, "properties": {"score": 0.628, "arch_area_m2": 1023.0, "source": "model", "merged_from": 1, "level": null, "label": null, "reason": null, "basis": null, "in_parcel_frac": 0.0, "rival_frac": 1.0, "owner": "2729012500107010013", "owner_by": "footprint", "registered": true, "bld_id": "N0004", "role": "neighbor", "az_deg": 312.6, "dist_m": 55.37, "dong": null}, "id": "N0004"}, {"type": "Feature", "geometry": {"type": "Polygon", "coordinates": [[[128.48090243334462, 35.842642180626086], [128.48090591396905, 35.842107993864786], [128.4811190671207, 35.84210891441701], [128.48111754039644, 35.84234332549904], [128.48156322560143, 35.842345249084914], [128.48156425232364, 35.84218747238501], [128.48170266361245, 35.842188069432126], [128.4816996868908, 35.842645621860335], [128.48090243334462, 35.842642180626086]]]}, "properties": {"score": 0.911, "arch_area_m2": 3114.0, "source": "model", "merged_from": 1, "level": null, "label": null, "reason": null, "basis": null, "in_parcel_frac": 0.0, "rival_frac": 1.0, "owner": "2729012500107010008", "owner_by": "footprint", "registered": true, "bld_id": "N0005", "role": "neighbor", "az_deg": 347.1, "dist_m": 21.31, "dong": null}, "id": "N0005"}, {"type": "Feature", "geometry": {"type": "Polygon", "coordinates": [[[128.4807071076451, 35.842454253400795], [128.48070788630804, 35.8423347939182], [128.4808739801397, 35.84233551154175], [128.4808732017258, 35.842454971027465], [128.4807071076451, 35.842454253400795]]]}, "properties": {"score": 0.284, "arch_area_m2": 199.0, "source": "model", "merged_from": 1, "level": null, "label": null, "reason": null, "basis": null, "in_parcel_frac": 0.0, "rival_frac": 1.0, "owner": "2729012500107010013", "owner_by": "footprint", "registered": true, "bld_id": "N0006", "role": "neighbor", "az_deg": 314.2, "dist_m": 52.87, "dong": null}, "id": "N0006"}, {"type": "Feature", "geometry": {"type": "Polygon", "coordinates": [[[128.48189021403635, 35.84229481695053], [128.48189119613477, 35.842143802100175], [128.48198808398843, 35.84214421978587], [128.48198730725048, 35.842263679296515], [128.48189021403635, 35.84229481695053]]]}, "properties": {"score": 0.424, "arch_area_m2": 131.0, "source": "model", "merged_from": 1, "level": null, "label": null, "reason": null, "basis": null, "in_parcel_frac": 0.0, "rival_frac": 1.0, "owner": "2729012500107060003", "owner_by": "footprint", "registered": true, "bld_id": "N0007", "role": "neighbor", "az_deg": 49.2, "dist_m": 39.52, "dong": null}, "id": "N0007"}, {"type": "Feature", "geometry": {"type": "Polygon", "coordinates": [[[128.48052588854827, 35.84222581454815], [128.48052668217312, 35.84210410111191], [128.48069831196412, 35.842104842906956], [128.4806975186014, 35.84222655634651], [128.48052588854827, 35.84222581454815]]]}, "properties": {"score": 0.622, "arch_area_m2": 209.0, "source": "model", "merged_from": 1, "level": null, "label": null, "reason": null, "basis": null, "in_parcel_frac": 0.0, "rival_frac": 1.0, "owner": "2729012500107010013", "owner_by": "footprint", "registered": true, "bld_id": "N0008", "role": "neighbor", "az_deg": 295.6, "dist_m": 46.49, "dong": null}, "id": "N0008"}, {"type": "Feature", "geometry": {"type": "Polygon", "coordinates": [[[128.48025474939277, 35.842202102004194], [128.48025539638735, 35.84210292809723], [128.48030522438762, 35.84210314359482], [128.4803045774551, 35.84220231750255], [128.48025474939277, 35.842202102004194]]]}, "properties": {"score": 0.134, "arch_area_m2": 50.0, "source": "model", "merged_from": 1, "level": null, "label": null, "reason": null, "basis": null, "in_parcel_frac": 0.0, "rival_frac": 1.0, "owner": "2729012500107010009", "owner_by": "parcel", "registered": false, "bld_id": "N0009", "role": "neighbor", "az_deg": 288.2, "dist_m": 79.85, "dong": null}, "id": "N0009"}, {"type": "Feature", "geometry": {"type": "Polygon", "coordinates": [[[128.48200643725895, 35.84187607096125], [128.48193446366662, 35.841875760700894], [128.48188760922386, 35.841844002471305], [128.48188810759734, 35.84176736806438], [128.4819600810912, 35.84176767835169], [128.4819598759073, 35.84179923369619], [128.4820067889719, 35.84182197608515], [128.48200643725895, 35.84187607096125]]]}, "properties": {"score": 0.235, "arch_area_m2": 101.0, "source": "model", "merged_from": 1, "level": null, "label": null, "reason": null, "basis": null, "in_parcel_frac": 0.0, "rival_frac": 1.0, "owner": "2729012500107050000", "owner_by": "footprint", "registered": true, "bld_id": "N0010", "role": "neighbor", "az_deg": 84.4, "dist_m": 16.26, "dong": null}, "id": "N0010"}, {"type": "Feature", "geometry": {"type": "Polygon", "coordinates": [[[128.48227750264158, 35.841911049315435], [128.48212248252324, 35.84191038135792], [128.48212403556906, 35.84167146231509], [128.4818942743063, 35.84167047194746], [128.48189513911302, 35.84153748870731], [128.48227991938705, 35.84153914701858], [128.48227750264158, 35.841911049315435]]]}, "properties": {"score": 0.597, "arch_area_m2": 884.0, "source": "model", "merged_from": 1, "level": null, "label": null, "reason": null, "basis": null, "in_parcel_frac": 0.0, "rival_frac": 1.0, "owner": "2729012500107050000", "owner_by": "footprint", "registered": true, "bld_id": "N0011", "role": "neighbor", "az_deg": 97.4, "dist_m": 17.14, "dong": null}, "id": "N0011"}, {"type": "Feature", "geometry": {"type": "Polygon", "coordinates": [[[128.48230596105734, 35.841791709048884], [128.48230760142238, 35.84153926627404], [128.48260656741414, 35.84154055382679], [128.48260492799633, 35.84179299661352], [128.48230596105734, 35.841791709048884]]]}, "properties": {"score": 0.888, "arch_area_m2": 756.0, "source": "model", "merged_from": 1, "level": null, "label": null, "reason": null, "basis": null, "in_parcel_frac": 0.0, "rival_frac": 1.0, "owner": "2729012500107050001", "owner_by": "footprint", "registered": true, "bld_id": "N0012", "role": "neighbor", "az_deg": 96.0, "dist_m": 54.08, "dong": null}, "id": "N0012"}, {"type": "Feature", "geometry": {"type": "Polygon", "coordinates": [[[128.4811314611732, 35.84190610647571], [128.48095983179857, 35.84190536530281], [128.48096171138218, 35.841616859340526], [128.4807596323744, 35.841615986364225], [128.48075814869034, 35.84184363559396], [128.48058651946045, 35.841842893889016], [128.48058966412717, 35.841360547999024], [128.48113499888441, 35.841362903817284], [128.4811314611732, 35.84190610647571]]]}, "properties": {"score": 0.838, "arch_area_m2": 2279.0, "source": "model", "merged_from": 1, "level": null, "label": null, "reason": null, "basis": null, "in_parcel_frac": 0.0, "rival_frac": 1.0, "owner": "2729012500107020004", "owner_by": "footprint", "registered": true, "bld_id": "N0013", "role": "neighbor", "az_deg": 251.8, "dist_m": 1.89, "dong": null}, "id": "N0013"}, {"type": "Feature", "geometry": {"type": "Polygon", "coordinates": [[[128.48160948621367, 35.841617401404804], [128.48161004351354, 35.84153175118578], [128.48170969882165, 35.841532181031035], [128.4817091416289, 35.8416178312514], [128.48160948621367, 35.841617401404804]]]}, "properties": {"score": 0.104, "arch_area_m2": 86.0, "source": "model", "merged_from": 1, "level": null, "label": null, "reason": null, "basis": null, "in_parcel_frac": 0.0, "rival_frac": 1.0, "owner": "2729012500107020006", "owner_by": "footprint", "registered": true, "bld_id": "N0014", "role": "neighbor", "az_deg": 130.9, "dist_m": 1.69, "dong": null}, "id": "N0014"}, {"type": "Feature", "geometry": {"type": "Polygon", "coordinates": [[[128.48032215300591, 35.841629873413616], [128.4803239466674, 35.84135489118382], [128.48055924335569, 35.84135590847725], [128.48055745050624, 35.84163089071727], [128.48032215300591, 35.841629873413616]]]}, "properties": {"score": 0.731, "arch_area_m2": 648.0, "source": "model", "merged_from": 1, "level": null, "label": null, "reason": null, "basis": null, "in_parcel_frac": 0.0, "rival_frac": 1.0, "owner": "2729012500107020003", "owner_by": "parcel", "registered": false, "bld_id": "N0015", "role": "neighbor", "az_deg": 254.1, "dist_m": 53.9, "dong": null}, "id": "N0015"}, {"type": "Feature", "geometry": {"type": "Polygon", "coordinates": [[[128.48114993469105, 35.84161992617121], [128.48115175485208, 35.84134043599873], [128.4814867065951, 35.841341881699236], [128.48148488760896, 35.841621371886475], [128.48114993469105, 35.84161992617121]]]}, "properties": {"score": 0.662, "arch_area_m2": 938.0, "source": "model", "merged_from": 1, "level": null, "label": null, "reason": null, "basis": null, "in_parcel_frac": 0.0, "rival_frac": 1.0, "owner": "2729012500107020006", "owner_by": "parcel", "registered": false, "bld_id": "N0016", "role": "neighbor", "az_deg": 200.8, "dist_m": 1.65, "dong": null}, "id": "N0016"}, {"type": "Feature", "geometry": {"type": "Polygon", "coordinates": [[[128.481510476219, 35.841517797539176], [128.48151112163424, 35.84141862360115], [128.48161077679933, 35.84141905352727], [128.48161013150806, 35.84151822746686], [128.481510476219, 35.841517797539176]]]}, "properties": {"score": 0.415, "arch_area_m2": 99.0, "source": "model", "merged_from": 1, "level": null, "label": null, "reason": null, "basis": null, "in_parcel_frac": 0.0, "rival_frac": 1.0, "owner": "2729012500107020006", "owner_by": "parcel", "registered": false, "bld_id": "N0017", "role": "neighbor", "az_deg": 156.8, "dist_m": 12.88, "dong": null}, "id": "N0017"}, {"type": "Feature", "geometry": {"type": "Polygon", "coordinates": [[[128.48200356245312, 35.84152202977511], [128.48201036442322, 35.84123569719154], [128.482439278939, 35.84124245149615], [128.4824324785093, 35.841528784116456], [128.48200356245312, 35.84152202977511]]]}, "properties": {"score": 0.311, "arch_area_m2": 1231.0, "source": "model", "merged_from": 1, "level": null, "label": null, "reason": null, "basis": null, "in_parcel_frac": 0.0, "rival_frac": 1.0, "owner": "2729012500107050014", "owner_by": "footprint", "registered": true, "bld_id": "N0018", "role": "neighbor", "az_deg": 116.3, "dist_m": 29.76, "dong": null}, "id": "N0018"}, {"type": "Feature", "geometry": {"type": "Polygon", "coordinates": [[[128.48152225310298, 35.84140965556216], [128.48152272248367, 35.84133752906053], [128.4816888142578, 35.84133824554072], [128.48168834502744, 35.84141037204425], [128.48152225310298, 35.84140965556216]]]}, "properties": {"score": 0.501, "arch_area_m2": 120.0, "source": "model", "merged_from": 1, "level": null, "label": null, "reason": null, "basis": null, "in_parcel_frac": 0.0, "rival_frac": 0.947, "owner": "2729012500107020006", "owner_by": "parcel", "registered": false, "bld_id": "N0019", "role": "neighbor", "az_deg": 156.3, "dist_m": 24.72, "dong": null}, "id": "N0019"}, {"type": "Feature", "geometry": {"type": "Polygon", "coordinates": [[[128.48244609945402, 35.84152633873506], [128.4824488228565, 35.84110710337887], [128.4826149141746, 35.84110781857516], [128.48261219164598, 35.84152705394232], [128.48244609945402, 35.84152633873506]]]}, "properties": {"score": 0.858, "arch_area_m2": 698.0, "source": "model", "merged_from": 1, "level": null, "label": null, "reason": null, "basis": null, "in_parcel_frac": 0.0, "rival_frac": 0.988, "owner": "2729012500107050016", "owner_by": "footprint", "registered": true, "bld_id": "N0020", "role": "neighbor", "az_deg": 112.6, "dist_m": 68.09, "dong": null}, "id": "N0020"}, {"type": "Feature", "geometry": {"type": "Polygon", "coordinates": [[[128.48026045459977, 35.84132756840415], [128.48026210141796, 35.841075125691596], [128.48050016546435, 35.841076155066055], [128.48049851940044, 35.8413285977881], [128.48026045459977, 35.84132756840415]]]}, "properties": {"score": 0.746, "arch_area_m2": 602.0, "source": "model", "merged_from": 1, "level": null, "label": null, "reason": null, "basis": null, "in_parcel_frac": 0.0, "rival_frac": 1.0, "owner": "2729012500107020010", "owner_by": "footprint", "registered": true, "bld_id": "N0021", "role": "neighbor", "az_deg": 241.4, "dist_m": 68.6, "dong": null}, "id": "N0021"}, {"type": "Feature", "geometry": {"type": "Polygon", "coordinates": [[[128.48091927043893, 35.841332669964046], [128.480921017965, 35.841064449553805], [128.48129195496188, 35.84106605122356], [128.48129020868444, 35.841334271649494], [128.48091927043893, 35.841332669964046]]]}, "properties": {"score": 0.758, "arch_area_m2": 997.0, "source": "model", "merged_from": 1, "level": null, "label": null, "reason": null, "basis": null, "in_parcel_frac": 0.0, "rival_frac": 1.0, "owner": "2729012500107020008", "owner_by": "footprint", "registered": true, "bld_id": "N0022", "role": "neighbor", "az_deg": 209.4, "dist_m": 33.8, "dong": null}, "id": "N0022"}, {"type": "Feature", "geometry": {"type": "Polygon", "coordinates": [[[128.48089223631658, 35.841343169713824], [128.4805759568003, 35.841338552513704], [128.48052052354188, 35.841319617882604], [128.4805288242169, 35.84094269565896], [128.48066254825412, 35.84094464798498], [128.48065981389385, 35.841068821491476], [128.48089820019294, 35.84107230148516], [128.48089223631658, 35.841343169713824]]]}, "properties": {"score": 0.9, "arch_area_m2": 1171.0, "source": "model", "merged_from": 1, "level": null, "label": null, "reason": null, "basis": null, "in_parcel_frac": 0.0, "rival_frac": 0.992, "owner": "2729012500107020009", "owner_by": "footprint", "registered": true, "bld_id": "N0023", "role": "neighbor", "az_deg": 230.9, "dist_m": 40.63, "dong": null}, "id": "N0023"}, {"type": "Feature", "geometry": {"type": "Polygon", "coordinates": [[[128.48131239827447, 35.84132760537695], [128.48131486349453, 35.84094894124093], [128.4815252453764, 35.84094984909916], [128.48152363190405, 35.84119778396107], [128.4816288231758, 35.84119823775621], [128.4816279726005, 35.841328967045044], [128.48131239827447, 35.84132760537695]]]}, "properties": {"score": 0.843, "arch_area_m2": 936.0, "source": "model", "merged_from": 1, "level": null, "label": null, "reason": null, "basis": null, "in_parcel_frac": 0.0, "rival_frac": 0.992, "owner": "2729012500107020007", "owner_by": "footprint", "registered": true, "bld_id": "N0024", "role": "neighbor", "az_deg": 178.9, "dist_m": 33.84, "dong": null}, "id": "N0024"}, {"type": "Feature", "geometry": {"type": "Polygon", "coordinates": [[[128.48188329158097, 35.84123089138392], [128.4818846400975, 35.84102352767129], [128.48243274084558, 35.84102588951641], [128.4824313937555, 35.84123325324693], [128.48188329158097, 35.84123089138392]]]}, "properties": {"score": 0.657, "arch_area_m2": 1139.0, "source": "model", "merged_from": 1, "level": null, "label": null, "reason": null, "basis": null, "in_parcel_frac": 0.0, "rival_frac": 0.99, "owner": "2729012500107050015", "owner_by": "footprint", "registered": true, "bld_id": "N0025", "role": "neighbor", "az_deg": 131.6, "dist_m": 47.46, "dong": null}, "id": "N0025"}, {"type": "Feature", "geometry": {"type": "Polygon", "coordinates": [[[128.48160122925688, 35.841184594625716], [128.48160254917389, 35.84098173882745], [128.48170774016174, 35.84098219255115], [128.48170642051255, 35.841185048352784], [128.48160122925688, 35.841184594625716]]]}, "properties": {"score": 0.319, "arch_area_m2": 214.0, "source": "model", "merged_from": 1, "level": null, "label": null, "reason": null, "basis": null, "in_parcel_frac": 0.0, "rival_frac": 1.0, "owner": "2729012500107020007", "owner_by": "parcel", "registered": false, "bld_id": "N0026", "role": "neighbor", "az_deg": 162.0, "dist_m": 49.69, "dong": null}, "id": "N0026"}, {"type": "Feature", "geometry": {"type": "Polygon", "coordinates": [[[128.4824492621097, 35.84103948477025], [128.4824499941951, 35.840926787087554], [128.48252750330076, 35.84092712087219], [128.48252677132498, 35.84103981855627], [128.4824492621097, 35.84103948477025]]]}, "properties": {"score": 0.42, "arch_area_m2": 88.0, "source": "model", "merged_from": 1, "level": null, "label": null, "reason": null, "basis": null, "in_parcel_frac": 0.0, "rival_frac": 0.931, "owner": "2729012500107050016", "owner_by": "footprint", "registered": true, "bld_id": "N0027", "role": "neighbor", "az_deg": 126.8, "dist_m": 94.18, "dong": null}, "id": "N0027"}, {"type": "Feature", "geometry": {"type": "Polygon", "coordinates": [[[128.48092142914422, 35.841001338867294], [128.4809218990618, 35.840929212367584], [128.48105477178703, 35.84092978622879], [128.48105430198973, 35.84100191273002], [128.48092142914422, 35.841001338867294]]]}, "properties": {"score": 0.472, "arch_area_m2": 96.0, "source": "model", "merged_from": 1, "level": null, "label": null, "reason": null, "basis": null, "in_parcel_frac": 0.0, "rival_frac": 1.0, "owner": "2729012500107020008", "owner_by": "footprint", "registered": true, "bld_id": "N0028", "role": "neighbor", "az_deg": 208.6, "dist_m": 71.46, "dong": null}, "id": "N0028"}, {"type": "Feature", "geometry": {"type": "Polygon", "coordinates": [[[128.48188752554395, 35.84100550797854], [128.48188781869604, 35.84096042890945], [128.48194069264363, 35.84091783054156], [128.48204034718904, 35.84091826010629], [128.482039775711, 35.84100616429342], [128.48188752554395, 35.84100550797854]]]}, "properties": {"score": 0.214, "arch_area_m2": 123.0, "source": "model", "merged_from": 1, "level": null, "label": null, "reason": null, "basis": null, "in_parcel_frac": 0.0, "rival_frac": 0.803, "owner": "2729012500107050015", "owner_by": "footprint", "registered": true, "bld_id": "N0029", "role": "neighbor", "az_deg": 146.3, "dist_m": 71.56, "dong": null}, "id": "N0029"}, {"type": "Feature", "geometry": {"type": "Polygon", "coordinates": [[[128.48149, 35.8415948], [128.4814872, 35.8415218], [128.4815691, 35.841523], [128.4815676, 35.8415942], [128.48149, 35.8415948]]]}, "properties": {"score": null, "source": "hand", "merged_from": 1, "arch_area_m2": 58.0, "in_parcel_frac": 0.0, "owner": null, "owner_by": "hand", "registered": false, "level": null, "label": null, "reason": null, "basis": null, "bld_id": "N0030", "role": "neighbor", "az_deg": 155.5, "dist_m": 4.52, "dong": null, "hand_note": "GT 에 없는 건물을 사람이 그려 넣었다 — 남 58 ㎡ 소형 부속 · 940 ㎡ 동과 103 ㎡ 동 사이 홈"}, "id": "N0030"}]}