{"type": "FeatureCollection", "frame": "map", "crs_name": "EPSG:4326", "layer": "buildings", "features": [{"type": "Feature", "geometry": {"type": "Polygon", "coordinates": [[[128.48116021471841, 35.84191978517957], [128.48115406932118, 35.84164104039319], [128.48170361857967, 35.841633006807534], [128.4817077506847, 35.84182037359679], [128.48142415943698, 35.84182451958377], [128.48142617432683, 35.841915897571106], [128.48116021471841, 35.84191978517957]]]}, "properties": {"score": 0.916, "arch_area_m2": 1275.0, "source": "model", "merged_from": 1, "level": null, "label": null, "reason": null, "basis": null, "in_parcel_frac": 1.0, "rival_frac": 0.0, "owner": "2729012500107020005", "owner_by": "footprint", "registered": true, "bld_id": "B0001", "role": "subject", "dong": "A동"}, "id": "B0001"}]}