{"type": "FeatureCollection", "frame": "map", "crs_name": "EPSG:4326", "layer": "ledger", "features": [{"type": "Feature", "geometry": {"type": "MultiPolygon", "coordinates": [[[[128.48114662348374, 35.841919852652325], [128.4816548830011, 35.84192205204135], [128.4817166446084, 35.84187139906774], [128.4817182113061, 35.84163122524616], [128.48114741817236, 35.84162866529222], [128.48114662348374, 35.841919852652325]]]]}, "properties": {"level": "이상없음", "level_rank": 5, "label": "증축으로 보지 않음", "reason": "대장 합계 1,313 ㎡(1동) · 실측 합계 1,275 ㎡(1동) · 초과 -38 ㎡(-3 %) — 초과분이 30 ㎡ 미만이거나 10 % 이하다", "basis": "건축법 제14조 제1항 제1호", "scope": "parcel", "pnu": "2729012500107020005", "measured_sum_m2": 1275.0, "ledger_sum_m2": 1313.0, "n_model": 1, "n_ledger": 1, "authoritative": true, "detection_ratio": 0.971, "method": "필지 총량 비교 — 대장에 위치가 없어 동별 대응은 footprint 가 있어야 가능하다. 총량은 footprint 없이도 성립한다"}, "id": "A3:PARCEL:2729012500107020005"}, {"type": "Feature", "geometry": {"type": "Polygon", "coordinates": [[[128.48116021471841, 35.84191978517957], [128.48115406932118, 35.84164104039319], [128.48170361857967, 35.841633006807534], [128.4817077506847, 35.84182037359679], [128.48142415943698, 35.84182451958377], [128.48142617432683, 35.841915897571106], [128.48116021471841, 35.84191978517957]]]}, "properties": {"level": "이상없음", "level_rank": 5, "label": "대장과 일치", "reason": "대장 1313 ㎡ · 실측 1275 ㎡ · 초과 -38 ㎡(-3 %) — 모델 면적오차(2 %)와 구분되지 않는다", "basis": "건축법 제14조 제1항 제1호", "scope": "building", "bld_id": "B0001", "measured_m2": 1275.0, "ledger_m2": 1313.0, "ledger_dong": null, "ledger_struct": "일반철골구조", "ledger_roof": "기타지붕", "floors_above": 3.0, "registered": true, "cover": 0.992, "attached": null, "authoritative": false, "method": "등록 footprint 로 등록 여부 판정 후 면적 순위로 대장 동에 대응"}, "id": "A3:B0001"}]}