{"type": "FeatureCollection", "frame": "map", "crs_name": "EPSG:4326", "layer": "parcel", "features": [{"type": "Feature", "geometry": {"type": "MultiPolygon", "coordinates": [[[[128.48114662348374, 35.841919852652325], [128.4816548830011, 35.84192205204135], [128.4817166446084, 35.84187139906774], [128.4817182113061, 35.84163122524616], [128.48114741817236, 35.84162866529222], [128.48114662348374, 35.841919852652325]]]]}, "properties": {"role": "subject", "pnu": "2729012500107020005", "address": "대구광역시 달서구 호산동 702-5", "area_m2": 1648.0, "shifted_m": [-2.0, 24.0]}, "id": "2729012500107020005"}, {"type": "Feature", "geometry": {"type": "MultiPolygon", "coordinates": [[[[128.48230862766715, 35.84079652459612], [128.48231133135317, 35.84039854837584], [128.48189229203206, 35.84039655729716], [128.48188980583774, 35.840743884714385], [128.48195223058022, 35.840795074668726], [128.48230862766715, 35.84079652459612]]]]}, "properties": {"role": "neighbor", "pnu": "2729012500107040000", "address": null, "area_m2": null, "shifted_m": null, "ledger_dongs": 1}, "id": "2729012500107040000"}, {"type": "Feature", "geometry": {"type": "MultiPolygon", "coordinates": [[[[128.48194752953458, 35.841923497682224], [128.48230083193732, 35.84192502439922], [128.4823032031349, 35.84152713694184], [128.481884820215, 35.84152541902128], [128.48188256583657, 35.841871125142255], [128.48194752953458, 35.841923497682224]]]]}, "properties": {"role": "neighbor", "pnu": "2729012500107050000", "address": null, "area_m2": null, "shifted_m": null, "ledger_dongs": 2}, "id": "2729012500107050000"}, {"type": "Feature", "geometry": {"type": "MultiPolygon", "coordinates": [[[[128.48051697487978, 35.84133681625214], [128.48051923078688, 35.84092405785756], [128.4800774977786, 35.840922142318405], [128.48007370535646, 35.841332550804346], [128.48051697487978, 35.84133681625214]]]]}, "properties": {"role": "neighbor", "pnu": "2729012500107020010", "address": null, "area_m2": null, "shifted_m": null, "ledger_dongs": 1}, "id": "2729012500107020010"}, {"type": "Feature", "geometry": {"type": "MultiPolygon", "coordinates": [[[[128.47965857814222, 35.84313241871761], [128.4800651254321, 35.84313418319846], [128.48006764925927, 35.842731610123074], [128.47966165567667, 35.842730118435064], [128.47965857814222, 35.84313241871761]]]]}, "properties": {"role": "neighbor", "pnu": "2729012500107010003", "address": null, "area_m2": null, "shifted_m": null, "ledger_dongs": 1}, "id": "2729012500107010003"}, {"type": "Feature", "geometry": {"type": "MultiPolygon", "coordinates": [[[[128.4800651254321, 35.84313418319846], [128.48047565801983, 35.84313587345648], [128.48047939789498, 35.84273321551179], [128.4801331746586, 35.84273189438247], [128.48006764925927, 35.842731610123074], [128.4800651254321, 35.84313418319846]]]]}, "properties": {"role": "neighbor", "pnu": "2729012500107010004", "address": null, "area_m2": null, "shifted_m": null, "ledger_dongs": 1}, "id": "2729012500107010004"}, {"type": "Feature", "geometry": {"type": "MultiPolygon", "coordinates": [[[[128.48047565801983, 35.84313587345648], [128.48088552653044, 35.84313755943556], [128.48088926551205, 35.842734721217845], [128.48088627702217, 35.84273470827287], [128.48047939789498, 35.84273321551179], [128.48047565801983, 35.84313587345648]]]]}, "properties": {"role": "neighbor", "pnu": "2729012500107010005", "address": null, "area_m2": null, "shifted_m": null, "ledger_dongs": 1}, "id": "2729012500107010005"}, {"type": "Feature", "geometry": {"type": "MultiPolygon", "coordinates": [[[[128.48088552653044, 35.84313755943556], [128.48129583722914, 35.843139336054676], [128.48129868983457, 35.842736313731464], [128.48088926551205, 35.842734721217845], [128.48088552653044, 35.84313755943556]]]]}, "properties": {"role": "neighbor", "pnu": "2729012500107010006", "address": null, "area_m2": null, "shifted_m": null, "ledger_dongs": 1}, "id": "2729012500107010006"}, {"type": "Feature", "geometry": {"type": "MultiPolygon", "coordinates": [[[[128.4816463784398, 35.843140762642044], [128.48170880217927, 35.84309056317063], [128.48171110385738, 35.84273773753194], [128.48129868983457, 35.842736313731464], [128.48129583722914, 35.843139336054676], [128.4816463784398, 35.843140762642044]]]]}, "properties": {"role": "neighbor", "pnu": "2729012500107010007", "address": null, "area_m2": null, "shifted_m": null, "ledger_dongs": 3}, "id": "2729012500107010007"}, {"type": "Feature", "geometry": {"type": "MultiPolygon", "coordinates": [[[[128.48088926551205, 35.842734721217845], [128.48129868983457, 35.842736313731464], [128.48171110385738, 35.84273773753194], [128.48171493343185, 35.842150686090676], [128.48165049490242, 35.842102641652474], [128.48089175648954, 35.84209935754221], [128.48088627702217, 35.84273470827287], [128.48088926551205, 35.842734721217845]]]]}, "properties": {"role": "neighbor", "pnu": "2729012500107010008", "address": null, "area_m2": null, "shifted_m": null, "ledger_dongs": 1}, "id": "2729012500107010008"}, {"type": "Feature", "geometry": {"type": "MultiPolygon", "coordinates": [[[[128.4801386630791, 35.84209609312863], [128.4801331746586, 35.84273189438247], [128.48047939777706, 35.84273323353609], [128.48050972553168, 35.8427333469783], [128.4805150990853, 35.842097725445456], [128.4801386630791, 35.84209609312863]]]]}, "properties": {"role": "neighbor", "pnu": "2729012500107010009", "address": null, "area_m2": null, "shifted_m": null, "ledger_dongs": 1}, "id": "2729012500107010009"}, {"type": "Feature", "geometry": {"type": "MultiPolygon", "coordinates": [[[[128.4801331746586, 35.84273189438247], [128.4801386630791, 35.84209609312863], [128.4797510483241, 35.842094366043796], [128.47974577646897, 35.84273042956741], [128.47991572266267, 35.84273105004068], [128.48006764908237, 35.84273163715951], [128.4801331746586, 35.84273189438247]]]]}, "properties": {"role": "neighbor", "pnu": "2729012500107010010", "address": null, "area_m2": null, "shifted_m": null, "ledger_dongs": 1}, "id": "2729012500107010010"}, {"type": "Feature", "geometry": {"type": "MultiPolygon", "coordinates": [[[[128.48088627702217, 35.84273470827287], [128.48089175648954, 35.84209935754221], [128.4805150990853, 35.842097725445456], [128.48050972553168, 35.8427333469783], [128.48088627702217, 35.84273470827287]]]]}, "properties": {"role": "neighbor", "pnu": "2729012500107010013", "address": null, "area_m2": null, "shifted_m": null, "ledger_dongs": 4}, "id": "2729012500107010013"}, {"type": "Feature", "geometry": {"type": "MultiPolygon", "coordinates": [[[[128.47944220511107, 35.84191255156425], [128.48001012293605, 35.841915017025855], [128.48001349152605, 35.841332650059336], [128.47967745013975, 35.84133245330659], [128.47944578563724, 35.84133225840376], [128.47944220511107, 35.84191255156425]]]]}, "properties": {"role": "neighbor", "pnu": "2729012500107020002", "address": null, "area_m2": null, "shifted_m": null, "ledger_dongs": 3}, "id": "2729012500107020002"}, {"type": "Feature", "geometry": {"type": "MultiPolygon", "coordinates": [[[[128.48001012293605, 35.841915017025855], [128.48057837288115, 35.84191748124321], [128.48058094957668, 35.84133709354117], [128.48051697487978, 35.84133681625214], [128.48007370535646, 35.841332550804346], [128.48001349152605, 35.841332650059336], [128.48001012293605, 35.841915017025855]]]]}, "properties": {"role": "neighbor", "pnu": "2729012500107020003", "address": null, "area_m2": null, "shifted_m": null, "ledger_dongs": 2}, "id": "2729012500107020003"}, {"type": "Feature", "geometry": {"type": "MultiPolygon", "coordinates": [[[[128.48114662348374, 35.841919852652325], [128.48114741817236, 35.84162866529222], [128.48114830940023, 35.8413396413133], [128.48091587535632, 35.84133863479632], [128.48058094957668, 35.84133709354117], [128.48057837288115, 35.84191748124321], [128.48114662348374, 35.841919852652325]]]]}, "properties": {"role": "neighbor", "pnu": "2729012500107020004", "address": null, "area_m2": null, "shifted_m": null, "ledger_dongs": 1}, "id": "2729012500107020004"}, {"type": "Feature", "geometry": {"type": "MultiPolygon", "coordinates": [[[[128.48114741817236, 35.84162866529222], [128.4817182113061, 35.84163122524616], [128.48172020729262, 35.84134220603237], [128.4813143337244, 35.84134035997878], [128.48114830940023, 35.8413396413133], [128.48114741817236, 35.84162866529222]]]]}, "properties": {"role": "neighbor", "pnu": "2729012500107020006", "address": null, "area_m2": null, "shifted_m": null, "ledger_dongs": 4}, "id": "2729012500107020006"}, {"type": "Feature", "geometry": {"type": "MultiPolygon", "coordinates": [[[[128.48172020729262, 35.84134220603237], [128.48172257167286, 35.840979737286865], [128.48165959058502, 35.84092899542894], [128.4813170288189, 35.84092751332951], [128.4813143337244, 35.84134035997878], [128.48172020729262, 35.84134220603237]]]]}, "properties": {"role": "neighbor", "pnu": "2729012500107020007", "address": null, "area_m2": null, "shifted_m": null, "ledger_dongs": 1}, "id": "2729012500107020007"}, {"type": "Feature", "geometry": {"type": "MultiPolygon", "coordinates": [[[[128.48091587535632, 35.84133863479632], [128.48114830940023, 35.8413396413133], [128.4813143337244, 35.84134035997878], [128.4813170288189, 35.84092751332951], [128.48091835115048, 35.84092578721432], [128.48091587535632, 35.84133863479632]]]]}, "properties": {"role": "neighbor", "pnu": "2729012500107020008", "address": null, "area_m2": null, "shifted_m": null, "ledger_dongs": 3}, "id": "2729012500107020008"}, {"type": "Feature", "geometry": {"type": "MultiPolygon", "coordinates": [[[[128.48058094957668, 35.84133709354117], [128.48091587535632, 35.84133863479632], [128.48091835115048, 35.84092578721432], [128.48051923078688, 35.84092405785756], [128.48051697487978, 35.84133681625214], [128.48058094957668, 35.84133709354117]]]]}, "properties": {"role": "neighbor", "pnu": "2729012500107020009", "address": null, "area_m2": null, "shifted_m": null, "ledger_dongs": 1}, "id": "2729012500107020009"}, {"type": "Feature", "geometry": {"type": "MultiPolygon", "coordinates": [[[[128.47967745013975, 35.84133245330659], [128.48001349152605, 35.841332650059336], [128.48007370535646, 35.841332550804346], [128.4800774977786, 35.840922142318405], [128.479680038311, 35.840920327255915], [128.47967745013975, 35.84133245330659]]]]}, "properties": {"role": "neighbor", "pnu": "2729012500107020011", "address": null, "area_m2": null, "shifted_m": null, "ledger_dongs": 2}, "id": "2729012500107020011"}, {"type": "Feature", "geometry": {"type": "MultiPolygon", "coordinates": [[[[128.47968092414638, 35.84078505489445], [128.48008192476632, 35.84078688531346], [128.4800843059406, 35.8403722348364], [128.48002110561455, 35.84037214089397], [128.47968374364166, 35.84037139770117], [128.47968092414638, 35.84078505489445]]]]}, "properties": {"role": "neighbor", "pnu": "2729012500107030003", "address": null, "area_m2": null, "shifted_m": null, "ledger_dongs": 1}, "id": "2729012500107030003"}, {"type": "Feature", "geometry": {"type": "MultiPolygon", "coordinates": [[[[128.48008192476632, 35.84078688531346], [128.4805206680191, 35.84078887799831], [128.48052337895493, 35.84037422893279], [128.4800843059406, 35.8403722348364], [128.48008192476632, 35.84078688531346]]]]}, "properties": {"role": "neighbor", "pnu": "2729012500107030004", "address": null, "area_m2": null, "shifted_m": null, "ledger_dongs": 2}, "id": "2729012500107030004"}, {"type": "Feature", "geometry": {"type": "MultiPolygon", "coordinates": [[[[128.4805206680191, 35.84078887799831], [128.4809212259844, 35.840790703698204], [128.4809243775622, 35.840376056523915], [128.4805907840065, 35.84037452108235], [128.48052337895493, 35.84037422893279], [128.4805206680191, 35.84078887799831]]]]}, "properties": {"role": "neighbor", "pnu": "2729012500107030005", "address": null, "area_m2": null, "shifted_m": null, "ledger_dongs": 1}, "id": "2729012500107030005"}, {"type": "Feature", "geometry": {"type": "MultiPolygon", "coordinates": [[[[128.4809212259844, 35.840790703698204], [128.48132056706987, 35.84079243267243], [128.48132304777417, 35.8403785035685], [128.48115857676092, 35.84037752127539], [128.4809243775622, 35.840376056523915], [128.4809212259844, 35.840790703698204]]]]}, "properties": {"role": "neighbor", "pnu": "2729012500107030006", "address": null, "area_m2": null, "shifted_m": null, "ledger_dongs": 1}, "id": "2729012500107030006"}, {"type": "Feature", "geometry": {"type": "MultiPolygon", "coordinates": [[[[128.481661910164, 35.8407939996126], [128.48172378038976, 35.84074352734031], [128.4817262518562, 35.84038159976595], [128.48132304777417, 35.8403785035685], [128.48132056706987, 35.84079243267243], [128.481661910164, 35.8407939996126]]]]}, "properties": {"role": "neighbor", "pnu": "2729012500107030007", "address": null, "area_m2": null, "shifted_m": null, "ledger_dongs": 2}, "id": "2729012500107030007"}, {"type": "Feature", "geometry": {"type": "MultiPolygon", "coordinates": [[[[128.48132304777417, 35.8403785035685], [128.4817262518562, 35.84038159976595], [128.48172992849308, 35.83985186634695], [128.48166817400173, 35.83979986805472], [128.48116059210435, 35.839797671709306], [128.48115857676092, 35.84037752127539], [128.48132304777417, 35.8403785035685]]]]}, "properties": {"role": "neighbor", "pnu": "2729012500107030008", "address": null, "area_m2": null, "shifted_m": null, "ledger_dongs": 2}, "id": "2729012500107030008"}, {"type": "Feature", "geometry": {"type": "MultiPolygon", "coordinates": [[[[128.48115857676092, 35.84037752127539], [128.48116059210435, 35.839797671709306], [128.48059279994692, 35.839795212289204], [128.4805907840065, 35.84037452108235], [128.4809243775622, 35.840376056523915], [128.48115857676092, 35.84037752127539]]]]}, "properties": {"role": "neighbor", "pnu": "2729012500107030009", "address": null, "area_m2": null, "shifted_m": null, "ledger_dongs": 2}, "id": "2729012500107030009"}, {"type": "Feature", "geometry": {"type": "MultiPolygon", "coordinates": [[[[128.4805907840065, 35.84037452108235], [128.48059279994692, 35.839795212289204], [128.48002478649693, 35.83979274922646], [128.48002110561455, 35.84037214089397], [128.4800843059406, 35.8403722348364], [128.48052337895493, 35.84037422893279], [128.4805907840065, 35.84037452108235]]]]}, "properties": {"role": "neighbor", "pnu": "2729012500107030010", "address": null, "area_m2": null, "shifted_m": null, "ledger_dongs": 5}, "id": "2729012500107030010"}, {"type": "Feature", "geometry": {"type": "MultiPolygon", "coordinates": [[[[128.47945197302298, 35.84037093198868], [128.47968374364166, 35.84037139770117], [128.48002110561455, 35.84037214089397], [128.48002478649693, 35.83979274922646], [128.47945577757997, 35.83979018903125], [128.47945197302298, 35.84037093198868]]]]}, "properties": {"role": "neighbor", "pnu": "2729012500107030011", "address": null, "area_m2": null, "shifted_m": null, "ledger_dongs": 2}, "id": "2729012500107030011"}, {"type": "Feature", "geometry": {"type": "MultiPolygon", "coordinates": [[[[128.48230862766715, 35.84079652459612], [128.4827214726796, 35.84079821712321], [128.48272439390695, 35.84040051219655], [128.48249816130064, 35.840399445393174], [128.48231133135317, 35.84039854837584], [128.48230862766715, 35.84079652459612]]]]}, "properties": {"role": "neighbor", "pnu": "2729012500107040001", "address": null, "area_m2": null, "shifted_m": null, "ledger_dongs": 2}, "id": "2729012500107040001"}, {"type": "Feature", "geometry": {"type": "MultiPolygon", "coordinates": [[[[128.48313808092115, 35.84079992446204], [128.483140887629, 35.84040248939534], [128.48310248110906, 35.840402323751924], [128.48272439390695, 35.84040051219655], [128.4827214726796, 35.84079821712321], [128.48313808092115, 35.84079992446204]]]]}, "properties": {"role": "neighbor", "pnu": "2729012500107040002", "address": null, "area_m2": null, "shifted_m": null, "ledger_dongs": 3}, "id": "2729012500107040002"}, {"type": "Feature", "geometry": {"type": "MultiPolygon", "coordinates": [[[[128.48310248110906, 35.840402323751924], [128.48310481095822, 35.83980598274728], [128.48250204344222, 35.83980338149322], [128.48249816130064, 35.840399445393174], [128.48272439390695, 35.84040051219655], [128.48310248110906, 35.840402323751924]]]]}, "properties": {"role": "neighbor", "pnu": "2729012500107040013", "address": null, "area_m2": null, "shifted_m": null, "ledger_dongs": 1}, "id": "2729012500107040013"}, {"type": "Feature", "geometry": {"type": "MultiPolygon", "coordinates": [[[[128.48249993392858, 35.84012727833414], [128.48189417741037, 35.84012439074268], [128.48189229203206, 35.84039655729716], [128.48231133135317, 35.84039854837584], [128.48249816130064, 35.840399445393174], [128.48249993392858, 35.84012727833414]]]]}, "properties": {"role": "neighbor", "pnu": "2729012500107040015", "address": null, "area_m2": null, "shifted_m": null, "ledger_dongs": 3}, "id": "2729012500107040015"}, {"type": "Feature", "geometry": {"type": "MultiPolygon", "coordinates": [[[[128.48230083193732, 35.84192502439922], [128.48271523236878, 35.84192672369], [128.48271837627925, 35.8415288395515], [128.4823032031349, 35.84152713694184], [128.48230083193732, 35.84192502439922]]]]}, "properties": {"role": "neighbor", "pnu": "2729012500107050001", "address": null, "area_m2": null, "shifted_m": null, "ledger_dongs": 1}, "id": "2729012500107050001"}, {"type": "Feature", "geometry": {"type": "MultiPolygon", "coordinates": [[[[128.48313040762199, 35.84192842489352], [128.48313321682363, 35.84153062941651], [128.48272745171258, 35.84152896884757], [128.48271837627925, 35.8415288395515], [128.48271523236878, 35.84192672369], [128.48313040762199, 35.84192842489352]]]]}, "properties": {"role": "neighbor", "pnu": "2729012500107050002", "address": null, "area_m2": null, "shifted_m": null, "ledger_dongs": 2}, "id": "2729012500107050002"}, {"type": "Feature", "geometry": {"type": "MultiPolygon", "coordinates": [[[[128.48313321682363, 35.84153062941651], [128.4833087603521, 35.84153138638284], [128.4833128556117, 35.84093568395996], [128.4827314406356, 35.84093326600276], [128.48272745171258, 35.84152896884757], [128.48313321682363, 35.84153062941651]]]]}, "properties": {"role": "neighbor", "pnu": "2729012500107050013", "address": null, "area_m2": null, "shifted_m": null, "ledger_dongs": 2}, "id": "2729012500107050013"}, {"type": "Feature", "geometry": {"type": "MultiPolygon", "coordinates": [[[[128.48188674545653, 35.84123018093127], [128.481884820215, 35.84152541902128], [128.48230320295872, 35.841527163978355], [128.48244819807897, 35.84152776319862], [128.48244995509157, 35.84123254238962], [128.48188674545653, 35.84123018093127]]]]}, "properties": {"role": "neighbor", "pnu": "2729012500107050014", "address": null, "area_m2": null, "shifted_m": null, "ledger_dongs": 1}, "id": "2729012500107050014"}, {"type": "Feature", "geometry": {"type": "MultiPolygon", "coordinates": [[[[128.48244995509157, 35.84123254238962], [128.4824517461253, 35.840932094517015], [128.48195278982112, 35.840929992812704], [128.48188836919618, 35.84098117516813], [128.48188674545653, 35.84123018093127], [128.48244995509157, 35.84123254238962]]]]}, "properties": {"role": "neighbor", "pnu": "2729012500107050015", "address": null, "area_m2": null, "shifted_m": null, "ledger_dongs": 2}, "id": "2729012500107050015"}, {"type": "Feature", "geometry": {"type": "MultiPolygon", "coordinates": [[[[128.48271837627925, 35.8415288395515], [128.48272745171258, 35.84152896884757], [128.4827314406356, 35.84093326600276], [128.4824517461253, 35.840932094517015], [128.48244819807897, 35.84152776319862], [128.48271837627925, 35.8415288395515]]]]}, "properties": {"role": "neighbor", "pnu": "2729012500107050016", "address": null, "area_m2": null, "shifted_m": null, "ledger_dongs": 1}, "id": "2729012500107050016"}, {"type": "Feature", "geometry": {"type": "MultiPolygon", "coordinates": [[[[128.48291745689778, 35.843372374932976], [128.48291928694215, 35.843091195840934], [128.48292068253105, 35.84274070947308], [128.48187703864417, 35.842735661199264], [128.4818730240601, 35.843368224427714], [128.48291745689778, 35.843372374932976]]]]}, "properties": {"role": "neighbor", "pnu": "2729012500107060002", "address": null, "area_m2": null, "shifted_m": null, "ledger_dongs": 1}, "id": "2729012500107060002"}, {"type": "Feature", "geometry": {"type": "MultiPolygon", "coordinates": [[[[128.48187703864417, 35.842735661199264], [128.48292068253105, 35.84274070947308], [128.48292568603216, 35.842107970128794], [128.48194613232874, 35.842103829863504], [128.481880739856, 35.842151132665926], [128.48187703864417, 35.842735661199264]]]]}, "properties": {"role": "neighbor", "pnu": "2729012500107060003", "address": null, "area_m2": null, "shifted_m": null, "ledger_dongs": 5}, "id": "2729012500107060003"}, {"type": "Feature", "geometry": {"type": "MultiPolygon", "coordinates": [[[[128.48291928694215, 35.843091195840934], [128.48392563820846, 35.843095533748446], [128.4839318040981, 35.84211221680536], [128.48292568603216, 35.842107970128794], [128.48292068253105, 35.84274070947308], [128.48291928694215, 35.843091195840934]]]]}, "properties": {"role": "neighbor", "pnu": "2729012500107060004", "address": null, "area_m2": null, "shifted_m": null, "ledger_dongs": 6}, "id": "2729012500107060004"}, {"type": "Feature", "geometry": {"type": "MultiPolygon", "coordinates": [[[[128.48392563820846, 35.843095533748446], [128.48291928694215, 35.843091195840934], [128.48291745689778, 35.843372374932976], [128.48291708989757, 35.84345087138129], [128.48330379363566, 35.84345244916638], [128.48329635349538, 35.844324105684926], [128.48552913530253, 35.84433343251138], [128.48560815653715, 35.844283933139415], [128.4856153607694, 35.84310288851869], [128.484932099791, 35.84309995382698], [128.48452509878504, 35.84309816781071], [128.48392563820846, 35.843095533748446]]]]}, "properties": {"role": "neighbor", "pnu": "2729012500107060009", "address": null, "area_m2": null, "shifted_m": null, "ledger_dongs": 6}, "id": "2729012500107060009"}, {"type": "Feature", "geometry": {"type": "MultiPolygon", "coordinates": [[[[128.47826507218036, 35.84430283901742], [128.47819055560802, 35.8442387969197], [128.47819629594449, 35.843314239746746], [128.47826371820736, 35.843261720615], [128.48164471871357, 35.84327639212716], [128.48170714584876, 35.84332749208095], [128.48170496596006, 35.84367860585506], [128.48170122914536, 35.84426836126783], [128.48163958868642, 35.844317122125496], [128.48192851545033, 35.8443183084231], [128.4818672595871, 35.84426907922016], [128.48186995661968, 35.84383856844883], [128.4818730240601, 35.843368224427714], [128.48187703864417, 35.842735661199264], [128.481880739856, 35.842151132665926], [128.48194613232874, 35.842103829863504], [128.48292568603216, 35.842107970128794], [128.4839318040981, 35.84211221680536], [128.48493803247666, 35.842116545656836], [128.48554115035978, 35.84211904614176], [128.48562088242662, 35.84218166412093], [128.48561826983598, 35.842619385463614], [128.4856153607694, 35.84310288851869], [128.48560815653715, 35.844283933139415], [128.48552913530253, 35.84433343251138], [128.4860337584778, 35.84433550770596], [128.4859394936222, 35.844277514123455], [128.48594072804926, 35.844103850405226], [128.48594584781196, 35.84334683042255], [128.48600739637533, 35.84329464222648], [128.48729234604974, 35.84330023666871], [128.48790964030638, 35.84330287607655], [128.48796641725176, 35.843355390634926], [128.48796353971247, 35.84380185289505], [128.4879603492795, 35.84427967695139], [128.4878825454346, 35.84434317032971], [128.48825941347874, 35.84434472620155], [128.4881820578374, 35.84428026357313], [128.4881831325626, 35.8441134485578], [128.4881848836898, 35.843841641910025], [128.48823140085804, 35.84380299710748], [128.48861349099928, 35.843804538110334], [128.4889762104629, 35.84380608542069], [128.48933904122, 35.84380754198636], [128.49021346543157, 35.843811084768156], [128.49026047932534, 35.84385012822802], [128.49025808682984, 35.844291996293855], [128.49017744710002, 35.84435266723153], [128.49055832185428, 35.84435428701438], [128.49047946689797, 35.84429203653538], [128.49049230730458, 35.84220364608854], [128.49057207068586, 35.84214116870124], [128.49152118801945, 35.84214510951661], [128.49159947731505, 35.84220906928702], [128.49158756469038, 35.844295391047936], [128.49150832942996, 35.84435815070702], [128.4916078594684, 35.844358563989935], [128.4918611119198, 35.84435963814107], [128.49188182359265, 35.841571377082715], [128.4918658211585, 35.84152940152372], [128.4918658802914, 35.8412605615765], [128.4918855166673, 35.841218917376096], [128.491892741816, 35.83970837769197], [128.49161526505253, 35.839707200903256], [128.47805768622473, 35.839648561872444], [128.4780269845648, 35.844301802265406], [128.47826507218036, 35.84430283901742]], [[128.49026167285044, 35.84366411724516], [128.49021493420986, 35.84370294214471], [128.4899164132079, 35.84370167185448], [128.48960682417277, 35.843700263559256], [128.489338299197, 35.84369911958519], [128.48906977481582, 35.84369788488957], [128.48880124987068, 35.843696739715554], [128.48853272552088, 35.84369550382006], [128.4882329870765, 35.843694224151974], [128.48818619274658, 35.84365563146018], [128.48818738608867, 35.84345321793233], [128.48818790534963, 35.84335543554934], [128.48824723236478, 35.84330422807706], [128.48850114486584, 35.84330540223878], [128.48876977916512, 35.84330654854461], [128.48903852358586, 35.84330778484369], [128.4893072680223, 35.843309020541746], [128.4895761237393, 35.84331016598879], [128.48991891698913, 35.84331171569491], [128.49020492845864, 35.84331302288115], [128.49026369754822, 35.84336581520705], [128.49026307766607, 35.84346242556803], [128.49026167285044, 35.84366411724516]], [[128.48796806716814, 35.84311656893238], [128.48791095382725, 35.84316778572778], [128.4875978244481, 35.84316644726051], [128.48741497236054, 35.843165602197566], [128.48732332491934, 35.84316518312086], [128.4865003781123, 35.84316165967641], [128.48622598933417, 35.84316039350485], [128.48601070604315, 35.84315947034862], [128.48594717464388, 35.84310755676536], [128.48594869998024, 35.842888922358306], [128.48594984161304, 35.84272958792659], [128.4859996575877, 35.842694382846695], [128.48792889487999, 35.84270264198484], [128.48797014324683, 35.842742923441534], [128.4879692566465, 35.84289766267079], [128.48796806716814, 35.84311656893238]], [[128.47883906273753, 35.84312903795599], [128.47824036525682, 35.84312652304958], [128.47819853508128, 35.84307442949548], [128.4782014785036, 35.842609402373064], [128.47820448755988, 35.84215122492647], [128.47828437643093, 35.84208794516302], [128.47936365496935, 35.84209263867066], [128.4801386630791, 35.84209609312863], [128.48165049490242, 35.842102641652474], [128.48171493343185, 35.842150686090676], [128.48171110385738, 35.84273773753194], [128.48170880217927, 35.84309056317063], [128.4816463784398, 35.843140762642044], [128.48129583722914, 35.843139336054676], [128.48088552653044, 35.84313755943556], [128.48047565801983, 35.84313587345648], [128.4800651254321, 35.84313418319846], [128.47965857814222, 35.84313241871761], [128.479247049457, 35.84313072133994], [128.47883906273753, 35.84312903795599]], [[128.49026500274024, 35.8431278932203], [128.49020646119442, 35.84317766305239], [128.48960156447015, 35.843175088249566], [128.4882516439282, 35.843169241076076], [128.4881894433361, 35.84311670348713], [128.48819463601117, 35.84231065601522], [128.48819537913212, 35.84219530037518], [128.4882744929529, 35.842130839016086], [128.48841118782408, 35.8421314226401], [128.48860687675088, 35.84213234799497], [128.48880256568592, 35.84213327303124], [128.4889983658934, 35.84213410809928], [128.48919405484529, 35.84213503249819], [128.48938985506902, 35.84213586692843], [128.48958565472194, 35.84213679116131], [128.48978145438332, 35.84213771507524], [128.4899773653157, 35.84213854901961], [128.49019729413857, 35.842139574945826], [128.49027070877938, 35.84220405558484], [128.49026996577186, 35.842319861870365], [128.49026500274024, 35.8431278932203]], [[128.48797124648704, 35.84255456885675], [128.48792992340006, 35.84259458762453], [128.4877835981722, 35.842593962288056], [128.4876007475673, 35.84259309048215], [128.4874178963884, 35.84259230851953], [128.48723504579826, 35.84259143615727], [128.4870521946337, 35.84259065363826], [128.48686934405828, 35.84258978071958], [128.4866863822233, 35.84258899717016], [128.48650342097804, 35.842588123220736], [128.48632045915735, 35.84258733911433], [128.48613749792688, 35.842586464607834], [128.48599869931456, 35.84258586937139], [128.4859512478623, 35.842546461874164], [128.4859522543017, 35.84239091206388], [128.4859535901837, 35.842184443566666], [128.48603292074404, 35.84212097598479], [128.48623215204168, 35.84212183027479], [128.48650653724346, 35.84212309640295], [128.48732958400845, 35.842126620190555], [128.48760385859137, 35.84212788334015], [128.48789639664724, 35.842129133785456], [128.4879735622067, 35.84219525408237], [128.48797224433665, 35.84239973996994], [128.48797124648704, 35.84255456885675]], [[128.4902726851009, 35.841896019866525], [128.49019513136506, 35.841959137326484], [128.4898419396336, 35.84195754416452], [128.489540990722, 35.84195617250733], [128.48924004183027, 35.84195480009662], [128.4889390929582, 35.8419534269323], [128.48863825478963, 35.84195205348681], [128.48835346580006, 35.84195074781034], [128.48827532299845, 35.8419504141588], [128.4881973634763, 35.84188726475671], [128.4881984150541, 35.841706840839436], [128.4881994513276, 35.841545973777556], [128.48824684969807, 35.8415077833326], [128.4883945011408, 35.841508413758866], [128.48857469288237, 35.84150927300049], [128.48875499531428, 35.841510132444114], [128.48893529833327, 35.84151090149566], [128.48911549009622, 35.841511759926576], [128.4892956824458, 35.841512527965584], [128.48947598490633, 35.841513386327684], [128.48965628795307, 35.84151415429767], [128.4898364797446, 35.841515011647644], [128.4900167828052, 35.84151577907678], [128.4902275231976, 35.84151676583853], [128.49027475885975, 35.841555539873426], [128.49027372735404, 35.84171631686576], [128.4902726851009, 35.841896019866525]], [[128.49139627492443, 35.84196397075657], [128.49116427853303, 35.841963436532076], [128.49111404968914, 35.841925281004976], [128.49111610989414, 35.841603636863326], [128.49111824726975, 35.84128722022997], [128.49112027393028, 35.84097080310966], [128.49160727771917, 35.84097277999712], [128.49160525356913, 35.84128910701972], [128.49160334007092, 35.841605434494994], [128.49160144907654, 35.841900943383386], [128.4915224557564, 35.84196432596897], [128.49139627492443, 35.84196397075657]], [[128.49027606119924, 35.841369799654295], [128.49022821767232, 35.84140852975555], [128.49001803040318, 35.84140763547418], [128.48983783884918, 35.841406778398394], [128.48965753604026, 35.84140601070273], [128.48947734450059, 35.841405153086505], [128.48911684960052, 35.84140361681503], [128.48893665808205, 35.84140275838827], [128.48857616322337, 35.84140122049504], [128.48839597172622, 35.84140036125765], [128.48824798843447, 35.841399729416956], [128.48820075676267, 35.84136050398521], [128.4882016782717, 35.841200267292535], [128.48820280237737, 35.84100857815278], [128.4882620169343, 35.84095737016595], [128.4885059611141, 35.840958411597434], [128.48871869226548, 35.84095940949613], [128.48914426643992, 35.840961224392366], [128.4893569976211, 35.84096222116126], [128.489782571853, 35.840964033797455], [128.48999541374602, 35.840965029907636], [128.490214786496, 35.840965963298665], [128.4902783103409, 35.84101922647784], [128.49027708979608, 35.8412094732608], [128.49027606119924, 35.841369799654295]], [[128.47944220511107, 35.84191255156425], [128.47887362266223, 35.84191017065287], [128.47828201868043, 35.84190759671105], [128.47820640931207, 35.84184174736876], [128.4782092430705, 35.84141024581616], [128.4782122856941, 35.84096378454983], [128.47827426298048, 35.8409142157708], [128.479680038311, 35.840920327255915], [128.4800774977786, 35.840922142318405], [128.48165959058502, 35.84092899542894], [128.48172257167286, 35.840979737286865], [128.48172020729262, 35.84134220603237], [128.4817182113061, 35.84163122524616], [128.4817166446084, 35.84187139906774], [128.4816548830011, 35.84192205204135], [128.48114662348374, 35.841919852652325], [128.48057837288115, 35.84191748124321], [128.47944220511107, 35.84191255156425]], [[128.48271523236878, 35.84192672369], [128.48230083193732, 35.84192502439922], [128.48194752953458, 35.841923497682224], [128.48188256583657, 35.841871125142255], [128.481884820215, 35.84152541902128], [128.48188836919618, 35.84098117516813], [128.48195278982112, 35.840929992812704], [128.4827314406356, 35.84093326600276], [128.4833128556117, 35.84093568395996], [128.48389061755475, 35.84093817349651], [128.48446948697742, 35.84094057489541], [128.48504868793296, 35.84094306505473], [128.48556579671038, 35.84094519577837], [128.48562911003796, 35.84099629752138], [128.48562547242165, 35.84154108195022], [128.48562330837194, 35.84187534283664], [128.4855444222214, 35.84193854168599], [128.48520196658774, 35.84193707109916], [128.48478701252324, 35.841935378003186], [128.48437272259687, 35.84193368633191], [128.48395909739367, 35.84193190597059], [128.4835446968551, 35.84193021096856], [128.48313040762199, 35.84192842489352], [128.48271523236878, 35.84192672369]], [[128.49098100306205, 35.84192543694573], [128.49093239572161, 35.841962451721784], [128.4905734489485, 35.84196074613813], [128.49049428681502, 35.841894979508126], [128.49049543520627, 35.84171590782333], [128.49049665726827, 35.84150808686025], [128.49049799000016, 35.84130026636045], [128.4904992114579, 35.841092535504394], [128.4905005441628, 35.840884714990075], [128.4905018762761, 35.84067698459007], [128.4905033629565, 35.84042788787319], [128.49055031972463, 35.84038924400764], [128.49074733204372, 35.84039026161029], [128.490944012904, 35.840391187357895], [128.49099080726285, 35.84042968887045], [128.490989206805, 35.840679506108984], [128.49098776527973, 35.840887236054606], [128.49098643384534, 35.84109505658464], [128.49098510297483, 35.84130278698588], [128.4909837715132, 35.84151060750139], [128.49098232935452, 35.84171842753948], [128.49098100306205, 35.84192543694573]], [[128.48172378038976, 35.84074352734031], [128.481661910164, 35.8407939996126], [128.48132056706987, 35.84079243267243], [128.4809212259844, 35.840790703698204], [128.4805206680191, 35.84078887799831], [128.48008192476632, 35.84078688531346], [128.47968092414638, 35.84078505489445], [128.4792799229713, 35.840783313258875], [128.47888135742713, 35.84078149075201], [128.4782742669293, 35.84077875934202], [128.47821404579798, 35.840729469685634], [128.47821720669523, 35.84028183727069], [128.47822015801486, 35.83984925462845], [128.47829850033838, 35.839785156972226], [128.47945577757997, 35.83979018903125], [128.48002478649693, 35.83979274922646], [128.48166817400173, 35.83979986805472], [128.48172992849308, 35.83985186634695], [128.4817262518562, 35.84038159976595], [128.48172378038976, 35.84074352734031]], [[128.48230862766715, 35.84079652459612], [128.48195223058022, 35.840795074668726], [128.48188980583774, 35.840743884714385], [128.48189229203206, 35.84039655729716], [128.4818960651147, 35.83985186368953], [128.48195893293166, 35.839801035100905], [128.48370669310506, 35.839808577163886], [128.4843105681685, 35.83981108701763], [128.4855547313536, 35.83981643418344], [128.48563632522314, 35.839881763882005], [128.4856326751356, 35.84041140751202], [128.48563031884336, 35.840758285008356], [128.48556612031027, 35.840809740672256], [128.48521082980622, 35.8408083051585], [128.4847966563949, 35.84080661547238], [128.48438215097232, 35.84080492293035], [128.48396343966238, 35.84080321084852], [128.48355258623738, 35.84080162129454], [128.48313808092115, 35.84079992446204], [128.4827214726796, 35.84079821712321], [128.48230862766715, 35.84079652459612]], [[128.49160762372458, 35.84091870700013], [128.49112062026612, 35.840916730116724], [128.4911226468896, 35.840600312976655], [128.49112467348144, 35.840283895819695], [128.49085538576165, 35.84028266191746], [128.49055211939194, 35.84028119284713], [128.4905045563421, 35.84024178665483], [128.4905055630542, 35.84008479472662], [128.4905068503417, 35.83990130749623], [128.49058728240394, 35.83983775141914], [128.49085822882301, 35.839838992963195], [128.49112751446634, 35.83984031696851], [128.49153492998974, 35.83984222651616], [128.49161388460277, 35.839905648370966], [128.49161156123753, 35.84028605242891], [128.49160953715557, 35.84060237948821], [128.49160762372458, 35.84091870700013]], [[128.4899009851665, 35.840829261608036], [128.4882724045563, 35.840822498753475], [128.4882043047746, 35.840775343414556], [128.4882101235949, 35.83988917796868], [128.4882899878018, 35.83982814448624], [128.48885656397476, 35.839830472230375], [128.48964450150524, 35.83983383031975], [128.48990714795622, 35.839834858413255], [128.490209860347, 35.83983614649975], [128.49028524723488, 35.83990342938361], [128.49028403105766, 35.84011025905772], [128.49028259202254, 35.840334571854456], [128.49028115354972, 35.84055879452098], [128.49027984829195, 35.84077950290567], [128.4902224066488, 35.8408306293116], [128.4899009851665, 35.840829261608036]], [[128.48797578155362, 35.84188523674535], [128.4878970044386, 35.841948978356584], [128.4860340861676, 35.84194082297349], [128.4859553513309, 35.841878029295025], [128.48596848513267, 35.839882197671315], [128.4860472605448, 35.83981863754126], [128.4879094680228, 35.83982633886744], [128.48798852515924, 35.83989057464781], [128.48797578155362, 35.84188523674535]]]]}, "properties": {"role": "neighbor", "pnu": "2729012500107210000", "address": null, "area_m2": null, "shifted_m": null, "ledger_dongs": 0}, "id": "2729012500107210000"}]}