{"type": "FeatureCollection", "frame": "map", "crs_name": "EPSG:4326", "layer": "separation", "features": [{"type": "Feature", "geometry": {"type": "LineString", "coordinates": [[128.48116021471841, 35.84191978517957], [128.4811190671207, 35.84210891441701]]}, "properties": {"level": "이상없음", "level_rank": 5, "label": "기준선 충족", "reason": "한쪽이라도 2층 이상 · 실측 21.3 m — 법정선 10 m 충족", "basis": "소방시설법 시행규칙 제17조 제2호", "pair": ["B0001", "N0005"], "dir": "북", "dir8": "북", "az_deg": 349.4, "dist_m": 21.3, "floors": [3, 2], "floors_src": ["ledger", "ledger"], "caveat": "개구부 방향·내화구조 여부는 위성에서 확정할 수 없다 — 현장 확인 대상", "same_parcel": false, "run_id": 1, "front_m": 10.0, "front_d_m": 29.73, "arc_m": 8.0}, "id": "S:B0001:N0005"}, {"type": "Feature", "geometry": {"type": "LineString", "coordinates": [[128.4817077506847, 35.84182037359679], [128.48188775784052, 35.84182114982055]]}, "properties": {"level": "이상없음", "level_rank": 5, "label": "기준선 충족", "reason": "한쪽이라도 2층 이상 · 실측 16.3 m — 법정선 10 m 충족", "basis": "소방시설법 시행규칙 제17조 제2호", "pair": ["B0001", "N0010"], "dir": "동", "dir8": "동", "az_deg": 89.1, "dist_m": 16.3, "floors": [3, 1], "floors_src": ["ledger", "ledger"], "caveat": "개구부 방향·내화구조 여부는 위성에서 확정할 수 없다 — 현장 확인 대상", "same_parcel": false, "run_id": 2, "front_m": 28.0, "front_d_m": 15.68, "arc_m": 28.1}, "id": "S:B0001:N0010"}, {"type": "Feature", "geometry": {"type": "LineString", "coordinates": [[128.48170361857967, 35.84163300680754], [128.48170371745684, 35.84161780785729]]}, "properties": {"level": "경고", "level_rank": 0, "label": "연소확대 우려", "reason": "한쪽이라도 2층 이상 · 실측 1.7 m — 법정선 10 m 미달", "basis": "소방시설법 시행규칙 제17조 제2호", "pair": ["B0001", "N0014"], "dir": "남", "dir8": "남", "az_deg": 179.1, "dist_m": 1.7, "floors": [3, 2], "floors_src": ["ledger", "ledger"], "caveat": "개구부 방향·내화구조 여부는 위성에서 확정할 수 없다 — 현장 확인 대상", "same_parcel": false, "run_id": 3, "front_m": 26.0, "front_d_m": 1.97, "arc_m": 54.1}, "id": "S:B0001:N0014"}, {"type": "Feature", "geometry": {"type": "LineString", "coordinates": [[128.48170450600912, 35.84167324665557], [128.4818942743063, 35.84167047194746]]}, "properties": {"level": "이상없음", "level_rank": 5, "label": "기준선 충족", "reason": "한쪽이라도 2층 이상 · 실측 17.1 m — 법정선 10 m 충족", "basis": "소방시설법 시행규칙 제17조 제2호", "pair": ["B0001", "N0011"], "dir": "동", "dir8": "동", "az_deg": 90.5, "dist_m": 17.1, "floors": [3, 1], "floors_src": ["ledger", "ledger"], "caveat": "개구부 방향·내화구조 여부는 위성에서 확정할 수 없다 — 현장 확인 대상", "same_parcel": false, "run_id": 7, "front_m": null, "front_d_m": 15.92, "arc_m": 54.1, "shadowed": true}, "id": "S:B0001:N0011"}, {"type": "Feature", "geometry": {"type": "LineString", "coordinates": [[128.48170361857967, 35.84163300680754], [128.48200356245312, 35.84152202977511]]}, "properties": {"level": "이상없음", "level_rank": 5, "label": "기준선 충족", "reason": "한쪽이라도 2층 이상 · 실측 29.8 m — 법정선 10 m 충족", "basis": "소방시설법 시행규칙 제17조 제2호", "pair": ["B0001", "N0018"], "dir": "동", "dir8": "남동", "az_deg": 113.9, "dist_m": 29.8, "floors": [3, 2], "floors_src": ["ledger", "ledger"], "caveat": "개구부 방향·내화구조 여부는 위성에서 확정할 수 없다 — 현장 확인 대상", "same_parcel": false, "run_id": 9, "front_m": null, "front_d_m": 28.61, "arc_m": 54.1, "shadowed": true}, "id": "S:B0001:N0018"}, {"type": "Feature", "geometry": {"type": "LineString", "coordinates": [[128.48156849932312, 35.84163498228146], [128.4815676, 35.84159420000001]]}, "properties": {"level": "경고", "level_rank": 0, "label": "연소확대 우려", "reason": "한쪽이라도 2층 이상 · 실측 4.5 m — 법정선 10 m 미달", "basis": "소방시설법 시행규칙 제17조 제2호", "pair": ["B0001", "N0030"], "dir": "남", "dir8": "남", "az_deg": 180.5, "dist_m": 4.5, "floors": [3, 2], "floors_src": ["ledger", "ledger"], "caveat": "개구부 방향·내화구조 여부는 위성에서 확정할 수 없다 — 현장 확인 대상", "same_parcel": false, "run_id": 4, "front_m": 4.0, "front_d_m": 4.0, "arc_m": 70.1}, "id": "S:B0001:N0030"}, {"type": "Feature", "geometry": {"type": "LineString", "coordinates": [[128.48161269197618, 35.84163433619165], [128.48161013150806, 35.84151822746686]]}, "properties": {"level": "이상없음", "level_rank": 5, "label": "기준선 충족", "reason": "한쪽이라도 2층 이상 · 실측 12.9 m — 법정선 10 m 충족", "basis": "소방시설법 시행규칙 제17조 제2호", "pair": ["B0001", "N0017"], "dir": "남", "dir8": "남", "az_deg": 180.5, "dist_m": 12.9, "floors": [3, 2], "floors_src": ["ledger", "ledger"], "caveat": "개구부 방향·내화구조 여부는 위성에서 확정할 수 없다 — 현장 확인 대상", "same_parcel": false, "run_id": 8, "front_m": null, "front_d_m": 12.48, "arc_m": 72.1, "shadowed": true}, "id": "S:B0001:N0017"}, {"type": "Feature", "geometry": {"type": "LineString", "coordinates": [[128.48169325819862, 35.841633158284026], [128.48168834502744, 35.84141037204425]]}, "properties": {"level": "이상없음", "level_rank": 5, "label": "기준선 충족", "reason": "한쪽이라도 2층 이상 · 실측 24.7 m — 법정선 10 m 충족", "basis": "소방시설법 시행규칙 제17조 제2호", "pair": ["B0001", "N0019"], "dir": "남", "dir8": "남", "az_deg": 180.5, "dist_m": 24.7, "floors": [3, 2], "floors_src": ["ledger", "ledger"], "caveat": "개구부 방향·내화구조 여부는 위성에서 확정할 수 없다 — 현장 확인 대상", "same_parcel": false, "run_id": 10, "front_m": null, "front_d_m": 24.48, "arc_m": 72.1, "shadowed": true}, "id": "S:B0001:N0019"}, {"type": "Feature", "geometry": {"type": "LineString", "coordinates": [[128.481485214577, 35.84163619984745], [128.48148488760896, 35.841621371886475]]}, "properties": {"level": "경고", "level_rank": 0, "label": "연소확대 우려", "reason": "한쪽이라도 2층 이상 · 실측 1.6 m — 법정선 10 m 미달", "basis": "소방시설법 시행규칙 제17조 제2호", "pair": ["B0001", "N0016"], "dir": "남", "dir8": "남", "az_deg": 180.5, "dist_m": 1.6, "floors": [3, 2], "floors_src": ["ledger", "ledger"], "caveat": "개구부 방향·내화구조 여부는 위성에서 확정할 수 없다 — 현장 확인 대상", "same_parcel": false, "run_id": 5, "front_m": 36.0, "front_d_m": 0.97, "arc_m": 90.2}, "id": "S:B0001:N0016"}, {"type": "Feature", "geometry": {"type": "LineString", "coordinates": [[128.48115406932118, 35.84164104039319], [128.48113318804903, 35.841640950235806]]}, "properties": {"level": "경고", "level_rank": 0, "label": "연소확대 우려", "reason": "한쪽이라도 2층 이상 · 실측 1.9 m — 법정선 10 m 미달", "basis": "소방시설법 시행규칙 제17조 제2호", "pair": ["B0001", "N0013"], "dir": "서", "dir8": "서", "az_deg": 269.1, "dist_m": 1.9, "floors": [3, 2], "floors_src": ["ledger", "ledger"], "caveat": "개구부 방향·내화구조 여부는 위성에서 확정할 수 없다 — 현장 확인 대상", "same_parcel": false, "run_id": 6, "front_m": 60.0, "front_d_m": 2.05, "arc_m": 138.3}, "id": "S:B0001:N0013"}]}